{"type":"FeatureCollection","features":[{"type":"Feature","properties":{"segment_id":4,"mask_origin":"sam_amg","n_hits":2,"shrub_abs":8.5,"perennial_grass_abs":3.5,"top_spp":"ARTR2 7.5%; SPAI 2.5%","SPAI_abs":2.5,"ARTR2_abs":7.5,"ATTO_abs":0.5,"ERNA10_abs":0.5},"geometry":{"type":"MultiPolygon","coordinates":[[[[-118.2303905191467,36.8711224452437],[-118.23026185938728,36.87107510149469],[-118.23018118033147,36.87108134514461],[-118.2301393232377,36.87098983525178],[-118.22987648793527,36.870970922075145],[-118.2298014124069,36.870906797966725],[-118.22970727254446,36.87091318059766],[-118.22964782520293,36.87098410525754],[-118.22956006899838,36.87096878802225],[-118.2295187327455,36.87090972305584],[-118.22941087191285,36.870900022144376],[-118.2292526916145,36.87069072997757],[-118.22922990069434,36.870528713006586],[-118.22916155656877,36.87046451885112],[-118.2291942555795,36.87040468795782],[-118.22904436681455,36.87029266136034],[-118.22902960642753,36.87021168764983],[-118.22898197376576,36.870179729725514],[-118.22900776913228,36.87010915342805],[-118.22936549113123,36.86974849725037],[-118.22957652918382,36.86947589260932],[-118.22979880385745,36.86948440940508],[-118.22996896984186,36.869601633622466],[-118.23101429497311,36.87014246894353],[-118.23115745583739,36.87025456273987],[-118.23123175068962,36.87027001827304],[-118.23132727838772,36.87035015483155],[-118.23134842444122,36.87040942837513],[-118.2314900236909,36.87042418632577],[-118.23145042243817,36.8704732725168],[-118.23151151714211,36.870505089930035],[-118.23151212483171,36.87054294259272],[-118.23144690391864,36.87067342062553],[-118.23134017164118,36.87073401926704],[-118.23133430920264,36.870788164240565],[-118.23127416910607,36.870815829498845],[-118.23122827102732,36.8708920229724],[-118.23085405487896,36.87106356071456],[-118.23068613992875,36.87108693351422],[-118.23058474896197,36.871060941398824],[-118.2305385030666,36.87111550451967],[-118.2303905191467,36.8711224452437]],[[-118.22912357221547,36.87019449051314],[-118.22916990524314,36.87014533545475],[-118.22915583791956,36.87010762198723],[-118.22910208136715,36.870113586424665],[-118.2290830164927,36.87018409313002],[-118.22912357221547,36.87019449051314]]],[[[-118.22895222015596,36.87042341653701],[-118.22884444669036,36.870419122625314],[-118.22884909812566,36.8702892723358],[-118.22889043352147,36.8703483375569],[-118.2289581708913,36.870374679175804],[-118.22895222015596,36.87042341653701]]],[[[-118.22895429933251,36.870553197220374],[-118.2289068397435,36.87053205432805],[-118.22891253062585,36.8704670943836],[-118.2289736243093,36.87049891312137],[-118.22895429933251,36.870553197220374]]],[[[-118.22906553861823,36.870773792152235],[-118.22901712584769,36.870693166498775],[-118.22891634234266,36.87070502563598],[-118.22890813918444,36.87061316725539],[-118.22895481912872,36.87058564239075],[-118.22907622699798,36.870600612032],[-118.22906553861823,36.870773792152235]]],[[[-118.22895863099306,36.870823573634596],[-118.22891790169425,36.870802361145465],[-118.22891712201749,36.87075369339093],[-118.2290255890627,36.87080124745221],[-118.22895863099306,36.870823573634596]]]]}},{"type":"Feature","properties":{"segment_id":7,"mask_origin":"sam_amg","n_hits":1,"shrub_abs":18.0,"perennial_grass_abs":11.0,"top_spp":"ERNA10 14.0%","SPAI_abs":null,"ARTR2_abs":null,"ATTO_abs":null,"ERNA10_abs":14.0},"geometry":{"type":"Polygon","coordinates":[[[-118.22809436128001,36.870659439009366],[-118.22822749839257,36.87056611980774],[-118.22848152317712,36.87045532553889],[-118.22857453673737,36.8703786460061],[-118.22856685366106,36.87031923276535],[-118.22861413981089,36.87032956073976],[-118.2286605598609,36.87028581340285],[-118.22870793261603,36.87030154886932],[-118.22878101438984,36.87024130053611],[-118.22890612011214,36.87006693725504],[-118.2289995659489,36.870017295045606],[-118.22939706309839,36.86961836843416],[-118.22953458706644,36.86937897492148],[-118.22952707670878,36.869330376801635],[-118.22939169016706,36.869283101665694],[-118.22924180335949,36.86917107526141],[-118.22879431096155,36.86897018310934],[-118.228339138171,36.86870987594459],[-118.228300141792,36.8687968138397],[-118.22833431272413,36.86882891119961],[-118.22808408009121,36.86875577945662],[-118.22764920768385,36.868922525528255],[-118.22765041918343,36.86899823098341],[-118.22754946459604,36.868999273862144],[-118.22747612341755,36.86904329884787],[-118.22745774946036,36.869157065589356],[-118.22742453046196,36.86918445083574],[-118.22745231697726,36.869238248097076],[-118.22751211117996,36.86918895463314],[-118.22762022901243,36.869214879916846],[-118.22762057515024,36.869236510046164],[-118.22747967090888,36.869265007687886],[-118.22744757666594,36.869362690864264],[-118.22758339487682,36.86943700589543],[-118.22761998879712,36.86962051435551],[-118.22770765656296,36.869630425530914],[-118.22776961455185,36.86971632023014],[-118.2277164639468,36.86976013675937],[-118.22769462854589,36.86965760225387],[-118.22761377764832,36.86965302907453],[-118.22760799916983,36.86971258145273],[-118.22756813615285,36.86974544379884],[-118.22757651065295,36.86984811738009],[-118.2276396802132,36.87000971758665],[-118.22777575941186,36.87010025495939],[-118.22777240438656,36.87031121821028],[-118.22782142147679,36.870429697120436],[-118.22795784789261,36.87054186438292],[-118.22801333617535,36.87064405106223],[-118.22809436128001,36.870659439009366]],[[-118.22863465242496,36.86992912521882],[-118.2285938370894,36.869902505075345],[-118.22866053464529,36.86986395651913],[-118.22866795790694,36.869907147169066],[-118.22863465242496,36.86992912521882]]]}},{"type":"Feature","properties":{"segment_id":23,"mask_origin":"sam_amg","n_hits":1,"shrub_abs":20.0,"perennial_grass_abs":2.0,"top_spp":"ARTR2 17.0%","SPAI_abs":null,"ARTR2_abs":17.0,"ATTO_abs":null,"ERNA10_abs":null},"geometry":{"type":"Polygon","coordinates":[[[-118.22900629634054,36.87001722543928],[-118.22939033274274,36.869618438061984],[-118.22952121306669,36.86938452171988],[-118.22951378938511,36.86934133112746],[-118.22937883612474,36.86932109362011],[-118.22934397129033,36.86924573634495],[-118.22903868096692,36.86909745823148],[-118.22897146448653,36.8691035618109],[-118.2289521398315,36.86915784591557],[-118.22873711614783,36.86918170310737],[-118.22873116534258,36.86923044046796],[-118.22857024378705,36.86926996322317],[-118.22859234003899,36.86938872014539],[-118.2286399720422,36.86942067824215],[-118.22864083811254,36.86947475354272],[-118.2287369684485,36.869592744971264],[-118.22880765015796,36.869802942696566],[-118.22895210668378,36.869996152163615],[-118.22900629634054,36.87001722543928]],[[-118.22879907489734,36.86926759726155],[-118.22875817325023,36.8692355696362],[-118.22878440161298,36.86919203102846],[-118.22884540759367,36.869218442328666],[-118.22879907489734,36.86926759726155]]]}},{"type":"Feature","properties":{"segment_id":204,"mask_origin":"residual_matrix","n_hits":12,"shrub_abs":17.0,"perennial_grass_abs":0.25,"top_spp":"ATTO 9.9%; ARTR2 5.2%","SPAI_abs":0.25,"ARTR2_abs":5.166666666666667,"ATTO_abs":9.916666666666666,"ERNA10_abs":0.5833333333333334},"geometry":{"type":"MultiPolygon","coordinates":[[[[-118.23202264282266,36.87340952259793],[-118.23252744136504,36.87340413150799],[-118.23252744387675,36.87340428781614],[-118.23202264282266,36.87340952259793]]],[[[-118.23202264021847,36.87340936046872],[-118.23201565156887,36.87339336982177],[-118.23202238224904,36.873393300039204],[-118.23202264021847,36.87340936046872]]],[[[-118.23201590953586,36.873409430188204],[-118.23155149505453,36.8734144064604],[-118.23155149239517,36.873414240832965],[-118.23201590953586,36.873409430188204]]],[[[-118.23137649461097,36.873416053539906],[-118.23139616845215,36.873383565625396],[-118.23151041638067,36.873371564825284],[-118.23155123458051,36.87339818389881],[-118.23137649461097,36.873416053539906]]],[[[-118.23137649461097,36.873416053539906],[-118.2313630359155,36.87341635948256],[-118.23136303324249,36.87341619297891],[-118.23137649461097,36.873416053539906]]],[[[-118.23114092065254,36.87341849372252],[-118.23121348525136,36.873325965929155],[-118.23138683338603,36.873221409743714],[-118.2314594816379,36.87313412217444],[-118.23172067478072,36.87305028880944],[-118.23175250444473,36.87293638204863],[-118.23160330159412,36.87286761905317],[-118.23147706906194,36.872971687291255],[-118.23124236450406,36.873028203565106],[-118.23105347235007,36.87300311847015],[-118.23091290973487,36.87305325035818],[-118.23091825192645,36.87296666028372],[-118.23070960190384,36.872968821406474],[-118.23063100311114,36.87310484594038],[-118.2306856292422,36.87315295600313],[-118.23075940622383,36.87313596663956],[-118.2307796849755,36.87314116502773],[-118.23059252779808,36.873224229654014],[-118.23030336922014,36.873243449036416],[-118.23023745021138,36.87333066624206],[-118.23023900873301,36.87342783613793],[-118.22769480778965,36.8734541901328],[-118.22776798185384,36.873399473943486],[-118.22778057764877,36.87334525957684],[-118.2277384624162,36.87323752625712],[-118.22766425186386,36.873227476115815],[-118.22727551651354,36.87333425160177],[-118.22722935342243,36.87339422101216],[-118.22723712058931,36.87345893106576],[-118.22669193426263,36.87346457835463],[-118.226608140677,36.87327624123661],[-118.22642208908991,36.8730077403893],[-118.22635141067367,36.87279754128983],[-118.22629670101198,36.872744021645],[-118.22593400322297,36.87195272558363],[-118.22584503671949,36.87186170014573],[-118.22560816238155,36.87136115987869],[-118.22538069952843,36.87102818323337],[-118.22467933710712,36.869683306668406],[-118.22456854359086,36.8694897450206],[-118.22453471917231,36.869479276711054],[-118.22454119306951,36.869884842072786],[-118.22457510399124,36.8699007179144],[-118.22503304030514,36.8707559379441],[-118.2251589388306,36.8710521034621],[-118.22520657049526,36.871084062933804],[-118.22527646669914,36.87124559504351],[-118.22536551818659,36.87134202847693],[-118.22564458872752,36.871955710964336],[-118.22607372559185,36.87269223821093],[-118.22623440862516,36.87305835304448],[-118.22646982128272,36.873466879102274],[-118.22614001712684,36.873470295364285],[-118.22610429018751,36.8733409337097],[-118.2257925080385,36.872787082612426],[-118.22570793825805,36.872549984278],[-118.22562518349577,36.87242644406816],[-118.22555028278249,36.87237313231696],[-118.22550144063541,36.87226546753378],[-118.2248483089479,36.87183411893276],[-118.22477168251942,36.871672655949695],[-118.22456950710209,36.871658514250754],[-118.22459756517526,36.873486272785776],[-118.2244541166336,36.864499445230166],[-118.22477154446015,36.86449617427433],[-118.22464401324115,36.864518620229475],[-118.2245515204246,36.86462774195752],[-118.22445730140048,36.86462871275892],[-118.22446325595591,36.86500183320876],[-118.22448344584531,36.865001625183375],[-118.22456946816011,36.86490879547956],[-118.22472486133111,36.864945053190546],[-118.22489975388973,36.86493784226542],[-118.22507326494615,36.86484411042038],[-118.22531562941015,36.86484702019609],[-118.22553952430664,36.86453643092323],[-118.22562666774319,36.86451389850997],[-118.22542434640187,36.86448944476875],[-118.23529710803057,36.864387232657734],[-118.23527070277208,36.864419455652026],[-118.23543698347076,36.86513163935584],[-118.23715775456819,36.87207978488727],[-118.23719201785414,36.87211728709677],[-118.23718286007166,36.87154949849707],[-118.23714894590479,36.871533626319966],[-118.23544759533044,36.86453660222188],[-118.23540512632687,36.864407241489786],[-118.23535767696644,36.86438660305939],[-118.23706706615839,36.864368821671285],[-118.2370674939902,36.86439535731491],[-118.23590986751273,36.86440199343293],[-118.23588381900255,36.86445634858228],[-118.23653203793333,36.86708891669435],[-118.2366819998779,36.86762279006761],[-118.23673041858495,36.867703412525294],[-118.2369505460108,36.86883148162225],[-118.23711519609469,36.869440919247985],[-118.23714937093743,36.86947301399564],[-118.23710329145264,36.86661551927624],[-118.23721199143164,36.87335560679977],[-118.23601393199958,36.873368016846314],[-118.2361479362392,36.87332882156728],[-118.23620563618802,36.87314974353578],[-118.236163857916,36.87306364346213],[-118.23621053664067,36.87303611577862],[-118.23622881118716,36.87291694046828],[-118.23612584742358,36.87279361795925],[-118.23600321499156,36.872702950447774],[-118.23587489777094,36.87267724295178],[-118.23586047816916,36.87261790031373],[-118.23580619773885,36.8725914227295],[-118.23573303230425,36.872646267786976],[-118.23581484503947,36.87271031800931],[-118.23553679950562,36.87258340722831],[-118.23547526601826,36.87252455439075],[-118.23526635630503,36.87251050095025],[-118.2352120761491,36.872484023088916],[-118.23481558052622,36.872526002782465],[-118.23475001550462,36.87263485245426],[-118.23476846634672,36.87252649234994],[-118.23466681105513,36.87248428124017],[-118.2345928615591,36.87249045797384],[-118.23463272289163,36.87245759331512],[-118.23464470440076,36.87236552569888],[-118.23459671995683,36.87231194004379],[-118.23448169092028,36.87227527613534],[-118.234473828993,36.87220504835205],[-118.23439909655232,36.87216255731862],[-118.23423756295773,36.872164235177785],[-118.23421142376543,36.87221318244565],[-118.23413825751524,36.87226802653894],[-118.23410039708497,36.87242526390967],[-118.23419514739005,36.872456730384194],[-118.2341486422756,36.87249507231756],[-118.23406044853708,36.87245272087761],[-118.23397776758894,36.872334594246844],[-118.23383607742572,36.87231443182292],[-118.23417794492185,36.87222434699755],[-118.23422384079691,36.87214815244078],[-118.23412900386332,36.872111278464224],[-118.23412578479487,36.871911200351605],[-118.23401679117015,36.87183120594098],[-118.23396320783408,36.87184798762542],[-118.23396416472286,36.871907470312564],[-118.2339308599489,36.87192944982762],[-118.23381031895595,36.871968560379315],[-118.23362168959689,36.87195970188269],[-118.2335348881203,36.872003870316064],[-118.2334737913951,36.87197205398875],[-118.23304950580862,36.87196023202394],[-118.23298806162788,36.87190678536656],[-118.23289400779255,36.87191857805824],[-118.23276830001298,36.87205509273834],[-118.23271680189845,36.87220165433075],[-118.2327849767147,36.872255031301016],[-118.23293313635168,36.87225890259712],[-118.2330400432686,36.872209117561106],[-118.23312159253591,36.87225694713752],[-118.23322272507629,36.87226671448337],[-118.23326458655843,36.87235822318973],[-118.23310261782933,36.87233286192279],[-118.23302263314037,36.8723823676685],[-118.233084425454,36.872457444369466],[-118.23307192048138,36.872517066752536],[-118.23312637381616,36.8725543606409],[-118.23324062019472,36.87254235820331],[-118.23326623846307,36.87246096603079],[-118.23338065857841,36.872459778496875],[-118.23337961517248,36.87239488828446],[-118.23333197936621,36.872362932174134],[-118.23335838001951,36.872330207643124],[-118.2334051462958,36.87230808856586],[-118.23352664460003,36.87232846110643],[-118.23359008969565,36.87250628036535],[-118.2337124581019,36.87258072787851],[-118.2338468962214,36.87256851522584],[-118.23385501857652,36.872654965605975],[-118.23390947238164,36.87269225912575],[-118.23394469129269,36.87278924497128],[-118.23409476602654,36.872912080149604],[-118.23381541774914,36.8727040525605],[-118.23380247840579,36.87273663742556],[-118.23384994066994,36.87275777830447],[-118.23385089750249,36.87281726098504],[-118.23376400822738,36.872856022078636],[-118.23378559180131,36.87294233269848],[-118.2337455558957,36.87296438204884],[-118.23364381358404,36.87291676255055],[-118.23357029839875,36.87294997624059],[-118.2333940844771,36.87287608748295],[-118.23337966674447,36.87281674451089],[-118.23333902214075,36.8728009411039],[-118.23317774794974,36.872818840100294],[-118.23313193757603,36.872900441789],[-118.2328967130396,36.872924516196626],[-118.23274968191619,36.87299094261985],[-118.23273035905227,36.87304522727292],[-118.2327104278244,36.87306165929356],[-118.23264993888054,36.87306769518745],[-118.23272354149827,36.87303988957654],[-118.23269557605923,36.87297527863829],[-118.23280300559028,36.872957938911014],[-118.23298325515208,36.87286412565576],[-118.23314235611807,36.872711038974316],[-118.23312672154836,36.87257599071326],[-118.23272010423008,36.87240714005888],[-118.23265970270155,36.872418583467955],[-118.23265349350419,36.872451098400106],[-118.23278958287113,36.8725416298046],[-118.23280400009142,36.87260097286037],[-118.23268319673932,36.87262385973788],[-118.23261133244358,36.872759815698906],[-118.23255153887345,36.87280911169087],[-118.2325464592136,36.87291192436358],[-118.23259418194584,36.87294928830451],[-118.23254767572146,36.872987629628476],[-118.23253517025529,36.873047251959164],[-118.23257598862487,36.873073870678674],[-118.23239356598283,36.873032495353776],[-118.23227758122815,36.87293634660323],[-118.23220319671653,36.87291548426285],[-118.2319757446685,36.87300437729962],[-118.23189497691287,36.873005214626076],[-118.23179996629244,36.87295752375389],[-118.23172110895844,36.87307732641194],[-118.23149977877044,36.87312829614391],[-118.23142013945993,36.87319943092259],[-118.23141462419767,36.87327520596425],[-118.2313140113551,36.873297882228144],[-118.23127475577691,36.873368598451336],[-118.23136303324249,36.87341619297891],[-118.23114092065254,36.87341849372252]],[[-118.23576337778943,36.864500868447074],[-118.2358575091562,36.86449448116648],[-118.23582893473636,36.86439201822598],[-118.2357416204653,36.8644037430233],[-118.23576337778943,36.864500868447074]],[[-118.23525000705513,36.86689672941286],[-118.23529676949678,36.866874609642814],[-118.23526137768772,36.86676680904684],[-118.2351301107872,36.86655724487616],[-118.23482302141616,36.8658789746351],[-118.2343509388585,36.864986080275784],[-118.23421819885279,36.86468458704406],[-118.23418823481163,36.864495603301314],[-118.23413300400262,36.86440964204254],[-118.23398512042328,36.86442199452909],[-118.23403948135885,36.86445388062332],[-118.23400617978189,36.86447586012611],[-118.23403483878613,36.86458373107162],[-118.23412380614404,36.86467475046293],[-118.23475012260558,36.86595004160456],[-118.23479302659042,36.86610644014552],[-118.23494465601274,36.86632660996698],[-118.23515387034955,36.866778743324254],[-118.23525000705513,36.86689672941286]],[[-118.235500041094,36.86737547990516],[-118.2355335176383,36.867364315014655],[-118.23553282094892,36.86732105487109],[-118.23540042033521,36.8670411933108],[-118.23538791793193,36.86710081594104],[-118.23542951774384,36.867176101411914],[-118.23543082392162,36.86725721418599],[-118.235500041094,36.86737547990516]],[[-118.23682153756381,36.868762514906564],[-118.23688184836145,36.86874566192594],[-118.23688648616097,36.86861581154024],[-118.23680730982281,36.86829753872753],[-118.23675311935355,36.86827646902091],[-118.236764557088,36.86856840475876],[-118.23681988112017,36.86865977213923],[-118.23682153756381,36.868762514906564]],[[-118.23704325535273,36.86957147024691],[-118.23709010606831,36.869554757272944],[-118.2370670374404,36.869376519536964],[-118.23700890611426,36.86952856044338],[-118.23704325535273,36.86957147024691]],[[-118.23631189499255,36.87013614859217],[-118.23641775082416,36.870021470430224],[-118.23637614842875,36.869946185387285],[-118.23637947979563,36.869735222319775],[-118.23631498497407,36.8694925143743],[-118.23613973505545,36.869478112209535],[-118.23610521209203,36.869424387104225],[-118.23608214579521,36.86924614912999],[-118.23597446089553,36.86924726917668],[-118.2355555030032,36.86956531434169],[-118.23550943575414,36.86963069436025],[-118.23548530127582,36.86980401476206],[-118.23554726800394,36.869889905239184],[-118.23574961445722,36.869914843342045],[-118.2358857899101,36.87001077876862],[-118.236007546528,36.870047371379115],[-118.23596742564453,36.87006401393424],[-118.23597476590419,36.870101796535096],[-118.2360429410256,36.87015517164702],[-118.23611041915478,36.87016528660421],[-118.23617046979334,36.87013221142279],[-118.23601436403315,36.87005270889039],[-118.23613585936377,36.87007307882383],[-118.23619739132735,36.87013193137013],[-118.23631189499255,36.87013614859217]],[[-118.23376754744574,36.87014636653183],[-118.23391518113482,36.87011779156637],[-118.23394079794716,36.87003639924415],[-118.23389902399103,36.86995029825141],[-118.23393905830257,36.869928248868355],[-118.23387175458821,36.86992894770641],[-118.23370532157071,36.87004425253945],[-118.23368652185877,36.87013098246311],[-118.23376754744574,36.87014636653183]],[[-118.23505250266285,36.87051701679906],[-118.23515345896239,36.87051596751049],[-118.23557802175499,36.87012755600811],[-118.2356309067115,36.87006751349759],[-118.2355889566604,36.86997059810414],[-118.235460818342,36.869955705093226],[-118.23519990117859,36.87005576900029],[-118.23507437465693,36.8702031010618],[-118.23487376860253,36.8702863121534],[-118.23486895327548,36.870405347456895],[-118.23489657132683,36.87044832782876],[-118.23505250266285,36.87051701679906]],[[-118.23395390006247,36.87126938327276],[-118.23417504915389,36.871207594048805],[-118.23435529292544,36.87111377879237],[-118.23437986537246,36.87096749618754],[-118.23432506454407,36.870908572785716],[-118.23431711592444,36.870832937453734],[-118.23434998504888,36.87078392025127],[-118.2343024368795,36.87075737202782],[-118.23428793188351,36.87069262163348],[-118.2342341753881,36.87069858839245],[-118.23417963587141,36.87065588746826],[-118.23399222755252,36.87072273474963],[-118.23383252348415,36.87083796988394],[-118.2337468540143,36.870952436192056],[-118.23373600222345,36.871114801491736],[-118.23383913383059,36.87124894125455],[-118.23395390006247,36.87126938327276]],[[-118.23465711980853,36.87104574220683],[-118.23470371084434,36.871012807602575],[-118.23469619703116,36.870964209886175],[-118.2345751357725,36.87097087608573],[-118.2345897281007,36.87104103395307],[-118.23465711980853,36.87104574220683]],[[-118.23528952241168,36.87102294472944],[-118.23538374890434,36.87102196519673],[-118.23536933002889,36.87096262247008],[-118.2352888257673,36.870979684608564],[-118.23528952241168,36.87102294472944]],[[-118.23434626972768,36.871389701971225],[-118.23443858222699,36.87126975781412],[-118.2345253823455,36.87122558874024],[-118.23451131219345,36.87118787596593],[-118.23443710286584,36.87117783003119],[-118.23439085968597,36.871232394600945],[-118.2341823886594,36.871245376767604],[-118.2341425277447,36.871278241273714],[-118.23415746775281,36.87137002926525],[-118.23434626972768,36.871389701971225]],[[-118.2357266084309,36.87182966332077],[-118.2358141924857,36.871834160931726],[-118.23576794991867,36.8718887260207],[-118.23577529028088,36.8719265086211],[-118.23585684089448,36.871974336296354],[-118.23567563881085,36.872008671173674],[-118.23567772948083,36.87213845149386],[-118.2357793848401,36.87218066173929],[-118.23587343848638,36.87216886676633],[-118.235919942526,36.87213052417546],[-118.23589127775892,36.87202265392025],[-118.23598524405956,36.872005451349544],[-118.23609101574768,36.87188536594431],[-118.23605605599995,36.871804603301634],[-118.23619704854816,36.87178150298633],[-118.23634975890667,36.871650112209394],[-118.2361976788098,36.87140290707993],[-118.23623431440666,36.87116996392171],[-118.23618563249015,36.87107311879924],[-118.23607585376415,36.87094445866311],[-118.23596073900384,36.870902388639635],[-118.23593950213673,36.870837708476444],[-118.23587132646527,36.87078433332108],[-118.23573619496234,36.87075328808872],[-118.23548130919217,36.870810022537675],[-118.23541478854305,36.870859389898385],[-118.2353972969197,36.87102723277226],[-118.23537754096196,36.87105448025522],[-118.23539204695119,36.87111923049434],[-118.23531896967047,36.871179482804386],[-118.23527359792928,36.87128812285479],[-118.23525993745275,36.87169389634816],[-118.23512497870632,36.871673665479925],[-118.2349715095126,36.87133993846487],[-118.23488952485324,36.871265072575845],[-118.23473507183432,36.87128831119797],[-118.23464949028318,36.87140818564877],[-118.23468462244793,36.87149976377317],[-118.23472535366086,36.87152097424668],[-118.23469335488097,36.87162406670627],[-118.23478819146379,36.87166094024145],[-118.23486362003877,36.87174669116126],[-118.2348576729831,36.87179542873967],[-118.23471169027583,36.871926747716],[-118.23471238661871,36.87197000783938],[-118.23509321544822,36.87220942915853],[-118.2352488893336,36.87226189523907],[-118.23539478463198,36.87212516810132],[-118.23539356535265,36.87204946290666],[-118.23561549939893,36.872036338612524],[-118.23566069684495,36.87191688341871],[-118.23550879258629,36.87168049241484],[-118.23558947173339,36.87167424514433],[-118.2357266084309,36.87182966332077]],[[-118.2346355653884,36.871797736576845],[-118.23464963572165,36.87183544932944],[-118.23472332345226,36.871813050025004],[-118.23468906149314,36.87177554707681],[-118.2346355653884,36.871797736576845]],[[-118.2363951973343,36.87196332775554],[-118.23647526651884,36.87191922729641],[-118.2364063050426,36.871817184874196],[-118.23619792001936,36.87183557811153],[-118.23621277545907,36.87192195827614],[-118.2363951973343,36.87196332775554]],[[-118.23653285920219,36.872151190023935],[-118.23666755757375,36.87215519673521],[-118.23667350349801,36.872106459089935],[-118.23656529156389,36.87207513467739],[-118.23653285920219,36.872151190023935]],[[-118.23532011397268,36.87250453370401],[-118.23542098578288,36.87249807662645],[-118.23543401149153,36.872470899110816],[-118.23530360477064,36.8723154106567],[-118.23518892372074,36.87230037749556],[-118.23496498639632,36.87218912817139],[-118.23491140303219,36.872205910283235],[-118.23489208189028,36.872260195262854],[-118.23491410183287,36.87237354323901],[-118.23482703950886,36.87240149006414],[-118.2348075441592,36.87244496000077],[-118.23480824056922,36.872488220118804],[-118.23484897234793,36.87250943053611],[-118.23521837134031,36.87245691555723],[-118.23532011397268,36.87250453370401]],[[-118.23655050464245,36.872410610496594],[-118.23659062660663,36.87239396773059],[-118.23658302426477,36.87233996265803],[-118.23648949355146,36.87238420326271],[-118.23655050464245,36.872410610496594]],[[-118.23330661847393,36.86450475575998],[-118.2335488947591,36.86450224123192],[-118.23360221228293,36.86446923723391],[-118.23360169063722,36.86443679208678],[-118.23331920905699,36.86445054082621],[-118.23330661847393,36.86450475575998]],[[-118.22663580929934,36.86448185312232],[-118.22631311920239,36.86450681708401],[-118.22640751087971,36.86451665989243],[-118.2265444431768,36.8646612743516],[-118.22671329656447,36.86469739053779],[-118.22697783924943,36.8648244618957],[-118.22702581362552,36.864878050878374],[-118.22738423080806,36.86498251831343],[-118.22742521608409,36.865019954023126],[-118.22822737929881,36.865092792782626],[-118.23090355988543,36.86491907662237],[-118.23153322303133,36.864728666633425],[-118.23181379613169,36.86459595650013],[-118.23208325297665,36.86460938850709],[-118.23212397978254,36.86463059997749],[-118.23214581945737,36.86473313367092],[-118.23229387769611,36.864731598511376],[-118.23239447906194,36.86470892159903],[-118.23244744979723,36.86465428800158],[-118.23260162968164,36.86461482998306],[-118.23270153577371,36.86454889260427],[-118.23283630759632,36.86455831144094],[-118.23316494298585,36.86448459223857],[-118.2331510486479,36.86445769427687],[-118.23290833800672,36.864433170361714],[-118.23253810704801,36.86443160227519],[-118.22909904220126,36.86446181153571],[-118.22863476535353,36.86447202075953],[-118.2285075032064,36.86451119538951],[-118.22824434419273,36.86447064802444],[-118.22705340972284,36.86449917581032],[-118.22663580929934,36.86448185312232]],[[-118.23198690621193,36.864897034004564],[-118.23209302212193,36.86479858219273],[-118.2320439154999,36.86467469746279],[-118.23198256481356,36.864626657627944],[-118.23182742958241,36.86460663204183],[-118.23168058684455,36.86468387201152],[-118.23166816867614,36.864748901848124],[-118.23172417830024,36.86488353204617],[-118.2318663751193,36.864936142443256],[-118.23198690621193,36.864897034004564]],[[-118.23196966854249,36.865081099234224],[-118.23203696805294,36.86508040155142],[-118.23208346985766,36.86504206046138],[-118.23207509004304,36.86493938721833],[-118.23196767150665,36.86495672610561],[-118.23194887090405,36.865043455840315],[-118.23196966854249,36.865081099234224]],[[-118.23160720597292,36.86514434887087],[-118.23172204930263,36.86517020077313],[-118.2318814846022,36.86503874594516],[-118.23189416309583,36.864989938674405],[-118.23178535540977,36.864920756955996],[-118.2315634410551,36.864933873742544],[-118.23148207423074,36.86489685793386],[-118.2312945905851,36.86495829327834],[-118.23117966093513,36.86492703342448],[-118.23083730145987,36.864984664017165],[-118.23070374340548,36.86505094834193],[-118.23075827695847,36.86509365101051],[-118.23097406930617,36.86511845813207],[-118.23123497563921,36.865018403631865],[-118.23132324599493,36.86506616493652],[-118.23151142424085,36.8650479897695],[-118.23160720597292,36.86514434887087]],[[-118.2334947181469,36.86741253660892],[-118.23363483399366,36.8673353642336],[-118.23380317456696,36.86733902502857],[-118.2339438987785,36.86729970494554],[-118.23397650576669,36.86723446527776],[-118.23395388007908,36.86708326432917],[-118.23382470328883,36.86700347919205],[-118.2336082962023,36.86694082471493],[-118.23354142982284,36.86696856092928],[-118.23333270938755,36.86696531883439],[-118.23319007321354,36.8668856726823],[-118.23312051237033,36.86674577544018],[-118.23303922978671,36.8667141682819],[-118.23300679601519,36.86679022275591],[-118.23314600455285,36.86707542485186],[-118.23313341346928,36.86712963975409],[-118.23320944407746,36.86725324456472],[-118.23335303722354,36.86739237342184],[-118.2334947181469,36.86741253660892]],[[-118.23129534588278,36.86752187973536],[-118.23141553412258,36.867461141707125],[-118.23147471676631,36.86737399362382],[-118.23154158427559,36.867346258553994],[-118.23154106344671,36.86731381339743],[-118.23140507175945,36.8672286878126],[-118.23130464036977,36.86726217899766],[-118.23116495612325,36.86736638630121],[-118.23113295410363,36.867469477928964],[-118.23118748964782,36.867512180347326],[-118.23129534588278,36.86752187973536]],[[-118.23125290454325,36.86949098609829],[-118.23143453690454,36.86948369564688],[-118.23151460648954,36.869439598507775],[-118.23164048602138,36.869313900181446],[-118.23161934006994,36.86925462667774],[-118.2315243343274,36.86920693546657],[-118.23132950239015,36.869230588092016],[-118.23121439270054,36.86918851336246],[-118.23108729775151,36.869238505895716],[-118.23104183426354,36.86934173692931],[-118.23111009212353,36.86940052247944],[-118.23110405603585,36.869443852404515],[-118.231218384956,36.86943725950998],[-118.23125290454325,36.86949098609829]],[[-118.23300266730519,36.869883884093795],[-118.23302224999408,36.869845821948864],[-118.23295494632877,36.86984652026643],[-118.23296219817294,36.86987889556174],[-118.23300266730519,36.869883884093795]],[[-118.23231682687343,36.87118901960411],[-118.23234357507037,36.87117792537564],[-118.23234279320992,36.87112925768687],[-118.23227548840151,36.87112995564036],[-118.23231682687343,36.87118901960411]],[[-118.2334216696658,36.87124245818029],[-118.2334943137562,36.87115516941597],[-118.23347368755063,36.87112834140835],[-118.23338627828439,36.87113465709186],[-118.23338111284423,36.871232062287056],[-118.2334216696658,36.87124245818029]],[[-118.23206410827824,36.871380934822355],[-118.23216489210526,36.87136907300903],[-118.23220336410823,36.87124968881222],[-118.23210870293728,36.871223628221756],[-118.23198108417503,36.87124117661675],[-118.23198946479428,36.87134384974944],[-118.23206410827824,36.871380934822355]],[[-118.23263068701334,36.871450777082394],[-118.23270437500315,36.87142837902458],[-118.23274940287895,36.87129810980884],[-118.2324663745591,36.87127941185361],[-118.23246033912217,36.87132274182274],[-118.23254948646904,36.871424577222406],[-118.23263068701334,36.871450777082394]],[[-118.23149978767839,36.8714516854253],[-118.23158667657462,36.87141292598682],[-118.23159219158548,36.87133715091954],[-118.23139605217199,36.87127969090639],[-118.23133808179725,36.87144254427092],[-118.23135931498955,36.87150722531884],[-118.23140677583768,36.8715283672045],[-118.2313872787411,36.87157183661794],[-118.23126665013498,36.871605537082274],[-118.23098114258619,36.87185187396958],[-118.23104310605791,36.8719377668295],[-118.23114449833648,36.871963758525716],[-118.23132526852089,36.871902392911146],[-118.23131284905683,36.87196742266046],[-118.23123251636123,36.8719952971288],[-118.23113433527817,36.872169383845446],[-118.23139891113063,36.87229644459228],[-118.23149296569149,36.872284653072015],[-118.23154516077338,36.87218135214124],[-118.23163869420638,36.87213711537904],[-118.2316174605903,36.87207243439534],[-118.231670176338,36.87200157854156],[-118.23162089179947,36.871866878812945],[-118.23147221205454,36.87183056073233],[-118.23167808041093,36.871655357630374],[-118.2316079099664,36.8714776069869],[-118.23148702116822,36.87149508510403],[-118.23149978767839,36.8714516854253]],[[-118.2321093553426,36.87168333730643],[-118.23224370533244,36.87166571896953],[-118.23227562056982,36.87155721958836],[-118.23211295896185,36.87148859676365],[-118.23203254021647,36.8715110642392],[-118.23203349559665,36.87157054697299],[-118.2321093553426,36.87168333730643]],[[-118.23339436444125,36.87163755632446],[-118.23350161801805,36.87160940096276],[-118.23350782679668,36.871576885989704],[-118.23338685138276,36.87158895851603],[-118.23339436444125,36.87163755632446]],[[-118.2318023560547,36.871848772655554],[-118.23190348791955,36.871858541137996],[-118.23186128097217,36.87174540182385],[-118.23191408312019,36.87167995338777],[-118.2318327957228,36.87164834551743],[-118.23178051453853,36.871746239048186],[-118.2318023560547,36.871848772655554]],[[-118.23222638035745,36.87184437652735],[-118.23234132085074,36.871875635133456],[-118.23234944141593,36.87196208565912],[-118.23239725033007,36.87200485721784],[-118.23249864312376,36.87203084774807],[-118.23254514880676,36.871992506447526],[-118.23255609008318,36.87183554875104],[-118.23250828119056,36.87179277725474],[-118.23228591279283,36.871778858139685],[-118.23222638035745,36.87184437652735]],[[-118.23207010303233,36.87259235904249],[-118.23225829948123,36.87257418237679],[-118.23228452692238,36.872530643035994],[-118.23225595394892,36.87242817933891],[-118.23227362643561,36.872271151873235],[-118.23216419985167,36.872164118139985],[-118.2320368401102,36.87219788918256],[-118.23206593384279,36.8723327980661],[-118.23199354758293,36.87243630855249],[-118.23207010303233,36.87259235904249]],[[-118.23342095519345,36.87245395182337],[-118.23348834809258,36.87245866071729],[-118.23345399947401,36.872415749893555],[-118.23341361592895,36.87241616906025],[-118.23342095519345,36.87245395182337]],[[-118.23138366752497,36.87260488256736],[-118.23153078596991,36.87254386534348],[-118.23155562466633,36.87241380581343],[-118.23140642301522,36.87234504254277],[-118.2312985599691,36.87233534338896],[-118.23125205344596,36.87237368421477],[-118.23124749285667,36.872508942002895],[-118.23130263975816,36.87258949691841],[-118.23138366752497,36.87260488256736]],[[-118.2333854408982,36.872757191961036],[-118.23342092004738,36.87287040052425],[-118.23350220937783,36.872902007265616],[-118.23366374457063,36.872900330377334],[-118.23382406198535,36.872822948039946],[-118.2337679555278,36.872682911666836],[-118.23363859538841,36.87259231153828],[-118.23341158079835,36.872708244866054],[-118.2333854408982,36.872757191961036]],[[-118.23196866661112,36.87298281699867],[-118.23209550650897,36.87291660088974],[-118.23216615574358,36.87270493994621],[-118.23210479841512,36.8726569003583],[-118.23199702171281,36.87265260936907],[-118.23194869150232,36.87257739253444],[-118.2319013167002,36.872561658404244],[-118.23174746791625,36.87262274584804],[-118.23167620976677,36.87279655391974],[-118.23187417705057,36.87296757130732],[-118.23196866661112,36.87298281699867]],[[-118.23018727110117,36.86516446431801],[-118.23023946338756,36.86506116389666],[-118.23017199044617,36.865051045499484],[-118.23007915821583,36.865138541263406],[-118.23018727110117,36.86516446431801]],[[-118.23064473506098,36.86514891111746],[-118.23065767456802,36.86511632655441],[-118.23062324418201,36.865068007240374],[-118.23054257146663,36.86507425102455],[-118.23059089537654,36.865149468636986],[-118.23064473506098,36.86514891111746]],[[-118.22928542510533,36.866012102817784],[-118.22939983577525,36.86601091929265],[-118.22937860587932,36.865946237777365],[-118.2293377924516,36.86591961783763],[-118.22928421212399,36.86593639737096],[-118.22928542510533,36.866012102817784]],[[-118.23006492811128,36.86635017640132],[-118.23032015035761,36.8663150838477],[-118.2303665670517,36.8662713358782],[-118.23034498939943,36.8661850244366],[-118.2301562011175,36.86616534509993],[-118.23009606415557,36.86619300972386],[-118.23002333398166,36.866274888936395],[-118.23002402753853,36.86631814917737],[-118.23006492811128,36.86635017640132]],[[-118.22953389370848,36.869335714694884],[-118.228339138171,36.86870987594459],[-118.228300141792,36.8687968138397],[-118.22833431272413,36.86882891119961],[-118.22810427094097,36.868755570798086],[-118.22799684608502,36.86877290619994],[-118.22764920768385,36.868922525528255],[-118.22765041918343,36.86899823098341],[-118.22754946459604,36.868999273862144],[-118.22747612341755,36.86904329884787],[-118.22743195295315,36.869227641581766],[-118.22747250795878,36.86923803954353],[-118.22751884150269,36.86918888511237],[-118.22760659529607,36.86920420390482],[-118.22762057515024,36.869236510046164],[-118.22747967090888,36.869265007687886],[-118.2274468844851,36.869319430603674],[-118.22745456657368,36.869378843944475],[-118.22758339487682,36.86943700589543],[-118.22761998879712,36.86962051435551],[-118.22770765656296,36.869630425530914],[-118.22776944145889,36.869705505166976],[-118.2277164639468,36.86976013675937],[-118.22769462854589,36.86965760225387],[-118.22761377764832,36.86965302907453],[-118.22760799916983,36.86971258145273],[-118.22756813615285,36.86974544379884],[-118.22757651065295,36.86984811738009],[-118.2276396802132,36.87000971758665],[-118.22777575941186,36.87010025495939],[-118.22777240438656,36.87031121821028],[-118.22782142147679,36.870429697120436],[-118.22795784789261,36.87054186438292],[-118.22802015319155,36.870649389040956],[-118.22814130127993,36.870648137048704],[-118.22822749839257,36.87056611980774],[-118.22848152317712,36.87045532553889],[-118.22857453673737,36.8703786460061],[-118.22856685366106,36.87031923276535],[-118.22861413981089,36.87032956073976],[-118.2286605598609,36.87028581340285],[-118.22870793261603,36.87030154886932],[-118.2288670371099,36.87014846778872],[-118.22890612011214,36.87006693725504],[-118.22906609011515,36.869967931206865],[-118.22946315333692,36.86954196673929],[-118.22953389370848,36.869335714694884]],[[-118.2303905191467,36.8711224452437],[-118.2305385030666,36.87111550451967],[-118.23058474896197,36.871060941398824],[-118.23068613992875,36.87108693351422],[-118.23085405487896,36.87106356071456],[-118.23122827102732,36.8708920229724],[-118.23127416910607,36.870815829498845],[-118.23133430920264,36.870788164240565],[-118.23134017164118,36.87073401926704],[-118.23144690391864,36.87067342062553],[-118.23151212483171,36.87054294259272],[-118.23151151714211,36.870505089930035],[-118.23145042243817,36.8704732725168],[-118.2314900236909,36.87042418632577],[-118.23134842444122,36.87040942837513],[-118.23132727838772,36.87035015483155],[-118.23123175068962,36.87027001827304],[-118.23115745583739,36.87025456273987],[-118.23101429497311,36.87014246894353],[-118.22996896984186,36.869601633622466],[-118.22979880385745,36.86948440940508],[-118.22957652918382,36.86947589260932],[-118.22936549113123,36.86974849725037],[-118.22900776913228,36.87010915342805],[-118.22898197376576,36.870179729725514],[-118.22902960642753,36.87021168764983],[-118.22904436681455,36.87029266136034],[-118.2291942555795,36.87040468795782],[-118.22916155656877,36.87046451885112],[-118.22922990069434,36.870528713006586],[-118.2292526916145,36.87069072997757],[-118.22941087191285,36.870900022144376],[-118.2295187327455,36.87090972305584],[-118.22956006899838,36.87096878802225],[-118.22964782520293,36.87098410525754],[-118.22970727254446,36.87091318059766],[-118.2298014124069,36.870906797966725],[-118.22987648793527,36.870970922075145],[-118.2301393232377,36.87098983525178],[-118.23018118033147,36.87108134514461],[-118.23026185938728,36.87107510149469],[-118.2303905191467,36.8711224452437]],[[-118.22884444669036,36.870419122625314],[-118.22895222015596,36.87042341653701],[-118.2289581708913,36.870374679175804],[-118.22889043352147,36.8703483375569],[-118.22884909812566,36.8702892723358],[-118.22884444669036,36.870419122625314]],[[-118.22863710258271,36.870502392917494],[-118.22863106502548,36.87054572273645],[-118.22868534160455,36.87057220368003],[-118.22868620774307,36.870626278969176],[-118.22854556120785,36.870671000495314],[-118.22856006137145,36.870735751680506],[-118.22874048439823,36.870652759885814],[-118.22872520455172,36.87053934096449],[-118.22877188451953,36.870511816170996],[-118.22879103637504,36.87044671704142],[-118.22874366351331,36.870430981610426],[-118.22863710258271,36.870502392917494]],[[-118.22895429933251,36.870553197220374],[-118.2289736243093,36.87049891312137],[-118.22891253062585,36.8704670943836],[-118.2289068397435,36.87053205432805],[-118.22895429933251,36.870553197220374]],[[-118.22901712584769,36.870693166498775],[-118.22906553861823,36.870773792152235],[-118.22907622699798,36.870600612032],[-118.22895481912872,36.87058564239075],[-118.22890813918444,36.87061316725539],[-118.22891634234266,36.87070502563598],[-118.22901712584769,36.870693166498775]],[[-118.22895863099306,36.870823573634596],[-118.2290255890627,36.87080124745221],[-118.22891712201749,36.87075369339093],[-118.22891790169425,36.870802361145465],[-118.22895863099306,36.870823573634596]],[[-118.22984482959694,36.871095643458915],[-118.22990540395291,36.8710950165418],[-118.22990479704384,36.871057163859774],[-118.22985086650112,36.87105231359406],[-118.22984482959694,36.871095643458915]],[[-118.23054696848602,36.87122358531675],[-118.23066121336295,36.87121158538592],[-118.23068036376387,36.87114648598574],[-118.23055239777005,36.87114240275199],[-118.23054696848602,36.87122358531675]],[[-118.23054214642163,36.87134262055177],[-118.23062955621853,36.871336306952095],[-118.2306619074038,36.87125484558051],[-118.23059460244264,36.87125554258416],[-118.23054809619899,36.871293883135664],[-118.23054214642163,36.87134262055177]],[[-118.23117602878045,36.87141177280331],[-118.23124971718376,36.871389375640355],[-118.23124884921438,36.87133530041025],[-118.23114554837444,36.871190343272595],[-118.23103113005612,36.87119152861994],[-118.23093785772032,36.87125198746719],[-118.23107342224348,36.87131007579102],[-118.23117602878045,36.87141177280331]],[[-118.22914110274404,36.87170866788076],[-118.22920780156082,36.871670119004904],[-118.22921987615655,36.871583459332676],[-118.22912452233417,36.871514136138224],[-118.22907740867515,36.87151462343825],[-118.22906334112638,36.87147690997211],[-118.2289503084567,36.87156461376338],[-118.228950914906,36.87160246645574],[-118.22899924156965,36.871677684587496],[-118.22914110274404,36.87170866788076]],[[-118.23018237534762,36.871995356224126],[-118.23021594143214,36.871989600313306],[-118.23022137109803,36.87190841776645],[-118.23030756732098,36.871826399048416],[-118.2303157723238,36.87191825728069],[-118.2304037899726,36.87194979650517],[-118.2304775658719,36.871932807333465],[-118.23044908228769,36.87183575066722],[-118.23047452983414,36.87174354398826],[-118.23036623405058,36.8717068063473],[-118.23026579637444,36.87174029674631],[-118.2301372223604,36.871698360409766],[-118.22996921907063,36.871716324698355],[-118.22997095323184,36.871824475203134],[-118.23018237534762,36.871995356224126]],[[-118.23099117079255,36.87205729012203],[-118.23064222242888,36.87212580544465],[-118.2306099576362,36.8722126743299],[-118.23055680700098,36.872256492113664],[-118.23057156945025,36.872337465570105],[-118.23066649179667,36.8723797499345],[-118.23084778398545,36.872350830163846],[-118.23090084773916,36.87230160472961],[-118.23091335437582,36.87224198254237],[-118.23107367331482,36.872164603881856],[-118.23107245829785,36.87208889856444],[-118.23099117079255,36.87205729012203]],[[-118.2303827659317,36.872317786894286],[-118.23044859719204,36.87222516208876],[-118.23043409512307,36.87216041118459],[-118.23015744770704,36.872120007992066],[-118.23011602363498,36.87205553573996],[-118.23006951667305,36.87209387611246],[-118.2301047304643,36.87219086320064],[-118.23024685318967,36.87223806771838],[-118.23032219062112,36.872318414072424],[-118.2303827659317,36.872317786894286]],[[-118.22997006494427,36.872608705633006],[-118.23014514768914,36.872612301731316],[-118.23010615151658,36.872699240162085],[-118.23001986740499,36.872775851220084],[-118.22998855549162,36.87292220271106],[-118.23009176987922,36.87306175328677],[-118.23021222784969,36.87301723892428],[-118.2302800547693,36.87304898724955],[-118.23034718783452,36.87303747534853],[-118.23043994231068,36.87294457179487],[-118.23042240408203,36.87269055758098],[-118.23035379678637,36.872610141617294],[-118.23039978346364,36.87253935599172],[-118.23039183849242,36.87246372034904],[-118.23031055085261,36.87243211144508],[-118.23027438263985,36.87227564166319],[-118.23004415524763,36.872191490235224],[-118.23004259438846,36.8720941547897],[-118.23000842126167,36.87206205797841],[-118.2297456689943,36.87204855210826],[-118.22957861832829,36.872125998641174],[-118.22951035913157,36.87206721226074],[-118.22911894623479,36.87200636032434],[-118.22885206259714,36.87215514789874],[-118.2286560962307,36.872108498425895],[-118.22846850612812,36.87216452207759],[-118.22841613367423,36.87225700667748],[-118.22828790610369,36.872236698453186],[-118.22809315192423,36.87226575344889],[-118.22786983054155,36.87219234326234],[-118.227748853108,36.87220441008127],[-118.22782730405183,36.87247942911379],[-118.22791618703731,36.87256504547289],[-118.22805753000782,36.872563584862256],[-118.22815314397027,36.87264913147917],[-118.22830095792783,36.87263137842975],[-118.22839631244263,36.8727007022605],[-118.2285295392598,36.872612790220714],[-118.22868391042567,36.872584152059396],[-118.22884579176753,36.87260411183928],[-118.22869745828179,36.872589420400935],[-118.2286172971708,36.87262810818208],[-118.2286261065802,36.8727578192443],[-118.22869375939396,36.872778753438936],[-118.22882715925451,36.872701656123965],[-118.22886641678889,36.87263094066633],[-118.22896798258648,36.87266774926671],[-118.22904392565752,36.87278594912638],[-118.22915375380788,36.8724981667653],[-118.2291547069902,36.87255764955356],[-118.22920915850088,36.872594945271615],[-118.22928657513395,36.872805072910396],[-118.22944880377574,36.87284666195825],[-118.22952206068194,36.87279722821103],[-118.22964347215863,36.87281219720053],[-118.22967617173819,36.87275236618622],[-118.22969809746945,36.8728603077349],[-118.22985368249691,36.872907373397986],[-118.22996085251664,36.87287381365725],[-118.22999294488055,36.872776129890475],[-118.23007922901989,36.87269951885154],[-118.23007818839741,36.87263462856112],[-118.22997006494427,36.872608705633006]],[[-118.2307228029017,36.87295245942239],[-118.23103810173697,36.872884292440006],[-118.2310909053542,36.87281884435453],[-118.23111695996106,36.872764490215395],[-118.23110132893663,36.872629441623275],[-118.23115369836005,36.872536955900614],[-118.23115886667225,36.87243955076924],[-118.23113133673348,36.87240197703948],[-118.23093571556522,36.872376961456034],[-118.23073457861747,36.87242772058002],[-118.23062232734212,36.87256409364696],[-118.23065098495901,36.87267196529704],[-118.23059249149254,36.87280237317127],[-118.23060708058802,36.87287253156749],[-118.2307228029017,36.87295245942239]],[[-118.2287487567693,36.87327035119589],[-118.22915095094392,36.8731634316937],[-118.22922299511035,36.87303829276568],[-118.22921548452494,36.87298969465841],[-118.22895298908483,36.87299240967146],[-118.22886419108886,36.87291220165093],[-118.22877695257228,36.872929329039266],[-118.22866348437489,36.872989994948824],[-118.22859782353117,36.87309343385916],[-118.22830184754714,36.873107310431976],[-118.22818208096383,36.87319508310078],[-118.22813661134063,36.87329831307087],[-118.22860697944992,36.87324477501919],[-118.22862009433135,36.87322300573364],[-118.22857245992942,36.873191047692345],[-118.22858522835273,36.873147648303274],[-118.22867281364677,36.87315215115745],[-118.2287487567693,36.87327035119589]],[[-118.22900556224201,36.873332596537985],[-118.22909262785676,36.873304653924166],[-118.22920057870665,36.873319762584394],[-118.22931413361145,36.87326450368926],[-118.22924648020611,36.87324356986058],[-118.22900452250381,36.873267706228326],[-118.22896483157837,36.873311384098535],[-118.22900556224201,36.873332596537985]],[[-118.22974628396322,36.87334656703018],[-118.22990808044642,36.87336111780138],[-118.2299342227826,36.87331217143151],[-118.22983161524698,36.873210473395204],[-118.22978484735695,36.87323259109181],[-118.22974628396322,36.87334656703018]],[[-118.22700726686391,36.86498100254736],[-118.22704005183665,36.86492657974242],[-118.22697231995855,36.86490023690555],[-118.22696662770886,36.86496519683933],[-118.22700726686391,36.86498100254736]],[[-118.22738052850808,36.86517185160088],[-118.22744704962915,36.86512248868746],[-118.22744635755517,36.86507922839592],[-118.22735110005026,36.86501531106197],[-118.22725058316762,36.865043391275066],[-118.22725869706188,36.86512984236516],[-118.22729968235865,36.86516727811692],[-118.22738052850808,36.86517185160088]],[[-118.22694411805202,36.86524125917857],[-118.22705153825017,36.86522392480517],[-118.22703747293257,36.86518621102044],[-118.22692332280879,36.86520361486134],[-118.22694411805202,36.86524125917857]],[[-118.22804878619253,36.86528934188039],[-118.22818269328144,36.86524469063171],[-118.22818156798306,36.865174392678654],[-118.22810028902127,36.8651427820653],[-118.2279927826524,36.86515470984529],[-118.22796724752051,36.8652415085723],[-118.22804878619253,36.86528934188039]],[[-118.2275413739849,36.86554878036798],[-118.22756009317953,36.86545664370773],[-118.22743187722847,36.86543633432311],[-118.2274333478892,36.86552826243719],[-118.2275413739849,36.86554878036798]],[[-118.2278582898958,36.86558336542314],[-118.22789159375519,36.865561387605986],[-118.22788408487834,36.86551278932564],[-118.2277820964761,36.86544894189387],[-118.22763438269666,36.86547210160154],[-118.22769651016952,36.865568811532306],[-118.2278582898958,36.86558336542314]],[[-118.22837219438657,36.86572949066301],[-118.22804854766271,36.865694976540276],[-118.22800842722496,36.86571161640974],[-118.2280091196317,36.86575487668755],[-118.2282186159064,36.86580679600767],[-118.22840006681801,36.86578869527807],[-118.2284264674243,36.86575597181039],[-118.22865624063006,36.865813089184684],[-118.2287297512786,36.865779878583034],[-118.22878099328568,36.865617095902806],[-118.22863819103898,36.86552662906821],[-118.22840298738367,36.865550694217355],[-118.22826347528499,36.86566571322297],[-118.22826408126562,36.865703565962725],[-118.22833819800456,36.8657082083406],[-118.22837219438657,36.86572949066301]],[[-118.22747097747549,36.86577666153238],[-118.22753723949751,36.86571107595755],[-118.2275300768948,36.86568410779513],[-118.22740255263247,36.86570705867374],[-118.22738987116198,36.8657558655144],[-118.22747097747549,36.86577666153238]],[[-118.22704008295638,36.86577029449621],[-118.22710729670845,36.865764192057014],[-118.22711333482944,36.865720862272404],[-118.22702584457339,36.86572176564181],[-118.22704008295638,36.86577029449621]],[[-118.22786227074957,36.86583211203547],[-118.22791541861189,36.86578829546438],[-118.22794095396706,36.8657014967519],[-118.22788659458763,36.8656696078437],[-118.22775208085358,36.86567640602544],[-118.22774664882368,36.86575758858289],[-118.22786227074957,36.86583211203547]],[[-118.22825412875036,36.86676372081256],[-118.22842125586648,36.866691683797214],[-118.22850071825492,36.86660973595985],[-118.22840528479605,36.86653500447216],[-118.22825687657797,36.86651490471761],[-118.22806386799861,36.86665211009866],[-118.22805800347233,36.86670625498386],[-118.22809208678898,36.86673294490988],[-118.22825412875036,36.86676372081256]],[[-118.22849080816633,36.866831583950805],[-118.228625237236,36.86681937736542],[-118.22860392115001,36.86674928817985],[-118.22854982052496,36.86673362219741],[-118.22848329876365,36.866782985727774],[-118.22849080816633,36.866831583950805]],[[-118.2281016733983,36.86691132396728],[-118.22840426909357,36.866891971219204],[-118.22839710606544,36.86686500312196],[-118.22828217463716,36.866833740506316],[-118.22810745134392,36.866851771548525],[-118.22805412975892,36.86688477314224],[-118.2281016733983,36.86691132396728]],[[-118.22713573591857,36.86712141406841],[-118.22702166943832,36.86714422558629],[-118.22702262078258,36.86720370847582],[-118.22708466246742,36.867295011152045],[-118.22707293195018,36.86740330084099],[-118.22718173909497,36.867472486859775],[-118.22729667106965,36.867503750527156],[-118.22739072049811,36.86749196234164],[-118.22749978761148,36.86757737066306],[-118.22753456332093,36.86764732101351],[-118.22758814523823,36.86763054224478],[-118.22760065380204,36.8675709203269],[-118.22770669251915,36.867467064769734],[-118.2277179029346,36.86732632983258],[-118.22768312721335,36.86725637953249],[-118.22770150046053,36.86714261273507],[-118.2276796659246,36.8670400781685],[-118.22775947561829,36.86697976094691],[-118.22775222627004,36.86694738527303],[-118.22763746801918,36.86692693710025],[-118.22742270963258,36.866967014418314],[-118.22730061577137,36.86690878268601],[-118.22716713774042,36.86698047066794],[-118.22712796785942,36.867056593140866],[-118.22713573591857,36.86712141406841]],[[-118.22772493211303,36.86818619718351],[-118.22781889575462,36.86816900111324],[-118.22789879303595,36.8681140913225],[-118.22789732167952,36.86802216326455],[-118.22759920183472,36.86790084940759],[-118.2275387164726,36.86790688263686],[-118.22739893931954,36.8680056780843],[-118.22742663884932,36.86805406783648],[-118.22756944449908,36.86814453602905],[-118.22772493211303,36.86818619718351]],[[-118.22787779608566,36.87100781608921],[-118.22795131199928,36.870974605899555],[-118.2280438072993,36.870865481587245],[-118.22802948067857,36.87081154539297],[-118.22793395576184,36.87073140613619],[-118.22741588355584,36.870747575184254],[-118.22745014154494,36.870785080310206],[-118.22741053748851,36.87083416520295],[-118.22747240963061,36.8709146524972],[-118.22787779608566,36.87100781608921]],[[-118.22880931387652,36.87158770551312],[-118.22896342296593,36.87154284444102],[-118.229096560496,36.87144952427036],[-118.22912235615003,36.87137894795686],[-118.22866760082476,36.87114568007873],[-118.22841883241506,36.87116447720362],[-118.22815487131336,36.871075262341016],[-118.2280680675607,36.87111942682665],[-118.22802742490902,36.87110362156143],[-118.22799946414725,36.87103900941123],[-118.22793276524357,36.87107755761386],[-118.22776458960315,36.87108470371102],[-118.22772342774483,36.87103645315768],[-118.22754066624773,36.87097344010728],[-118.22715806698488,36.87104229279663],[-118.22678728483874,36.871008262186656],[-118.22671402779754,36.87105769426329],[-118.2266897865608,36.87122560568041],[-118.22695374657363,36.871314823817485],[-118.22709526029979,36.871324179456565],[-118.22705660726103,36.87143274708234],[-118.22711270057513,36.87157278689644],[-118.22719993796389,36.87155566074781],[-118.22724436971345,36.87138754072928],[-118.22732539546847,36.8714029291873],[-118.22734515441134,36.87137568299032],[-118.22744602560459,36.871369232697155],[-118.22757494382596,36.87143280210719],[-118.22768944919889,36.87143702761069],[-118.22776279250088,36.871393002470704],[-118.22809206828335,36.871357149459264],[-118.22825498592726,36.87144200044877],[-118.22822892969663,36.8714963540013],[-118.22829037029427,36.87154980319072],[-118.2283194571845,36.87168471313221],[-118.2284423388984,36.87179161137238],[-118.22850248081252,36.87176394751893],[-118.2285482955187,36.87168234752145],[-118.22855993782261,36.87156865026127],[-118.2285053141539,36.87152053916323],[-118.22866080913754,36.87156219893421],[-118.22859367707694,36.87157370986601],[-118.22858142855344,36.87164955443144],[-118.22869128256657,36.871783629218456],[-118.22873123274663,36.871756174023666],[-118.2287491722139,36.871615369518096],[-118.22870136554126,36.87157259644669],[-118.22880931387652,36.87158770551312]],[[-118.22775945801821,36.872025822532315],[-118.22803342024761,36.87189859794023],[-118.22803859250673,36.87180119286202],[-118.22809847485132,36.871757306623024],[-118.22808388828318,36.871687147859646],[-118.22798154509312,36.87160167070114],[-118.22802175515153,36.871590438329335],[-118.22804108103304,36.87153615437428],[-118.22812823157614,36.87151362001929],[-118.22812089501292,36.8714758368736],[-118.22753577220598,36.87150892469316],[-118.22738036442479,36.871472670967],[-118.22725982061276,36.87151177492441],[-118.22714695879857,36.87161029210066],[-118.22714308304215,36.87178881012872],[-118.22723196445602,36.871874427038236],[-118.22751672476862,36.87200128804463],[-118.22775945801821,36.872025822532315]],[[-118.2283939501428,36.872132842260704],[-118.22856755941879,36.872044512730724],[-118.22857281761354,36.871952515171856],[-118.22830885360416,36.87186330071624],[-118.22815405082552,36.87186490072537],[-118.22810098556786,36.87191412496337],[-118.2281429273661,36.87201104312463],[-118.2282104062216,36.87202116255439],[-118.22826572278599,36.87211253400813],[-118.2283939501428,36.872132842260704]],[[-118.22699520025589,36.87222301110212],[-118.22729004839513,36.87213883994675],[-118.22728857755315,36.87204691193018],[-118.22721315700528,36.87196115605484],[-118.22698267426296,36.87186077601786],[-118.2268144102944,36.87186251327102],[-118.22679560237212,36.87194924223035],[-118.22684487855021,36.87208394411392],[-118.22694109604564,36.87220734446643],[-118.22699520025589,36.87222301110212]],[[-118.22756781958073,36.872249547728394],[-118.22765445179999,36.87219456852844],[-118.22766687440823,36.87212953910607],[-118.2275465028047,36.87217945842585],[-118.22753399354932,36.87223908030738],[-118.22756781958073,36.872249547728394]],[[-118.22743703402912,36.87291072636364],[-118.22752531132397,36.87295849030372],[-118.22754024382118,36.87305027924201],[-118.22750011946636,36.87306691899265],[-118.22752074415274,36.87309374805762],[-118.22764198267197,36.87309790403251],[-118.22786995963835,36.87304146436581],[-118.22794339091064,36.8730028466279],[-118.22804097429744,36.87279090972118],[-118.22800645538216,36.87273718221481],[-118.2279388027818,36.87271624762454],[-118.22791075490171,36.872646227951485],[-118.2278569099008,36.87264678432897],[-118.22768407738326,36.87278378061284],[-118.2275755217536,36.87273081784956],[-118.22748836966358,36.87275335182311],[-118.22744876465158,36.872802436730964],[-118.22743703402912,36.87291072636364]],[[-118.2279987944752,36.873099625712015],[-118.22820666577506,36.87304880159311],[-118.22825300107264,36.87299964687275],[-118.22817705898511,36.87288144649311],[-118.22806919550727,36.87287174441485],[-118.22798912034821,36.87291583930985],[-118.22795098726354,36.87305685235849],[-118.2279987944752,36.873099625712015]],[[-118.2244569562122,36.86460708258716],[-118.22455781883392,36.864600634898025],[-118.22454349594796,36.864546698161114],[-118.22445592064965,36.86454219207143],[-118.2244569562122,36.86460708258716]],[[-118.22687128426891,36.86489587157184],[-118.22694531369335,36.86489510729738],[-118.2269448813273,36.86486806960908],[-118.22683021286072,36.8648530281262],[-118.22687128426891,36.86489587157184]],[[-118.2258419475674,36.86492812731483],[-118.22584772716496,36.86486857495695],[-118.22577361134505,36.86486393100728],[-118.22577438886144,36.86491259886752],[-118.2258419475674,36.86492812731483]],[[-118.22662443745455,36.865033630430766],[-118.22675929604192,36.86504846369536],[-118.22679837886058,36.86496693379305],[-118.22678983319541,36.864853444969384],[-118.22672831266019,36.86479458728879],[-118.22659423255948,36.864828421826076],[-118.2266156326858,36.86490391897634],[-118.22658310676172,36.864974564284694],[-118.22662443745455,36.865033630430766]],[[-118.22509276884789,36.86522249955811],[-118.22522650493075,36.86516703652893],[-118.2252395331127,36.86513986005441],[-118.225118307244,36.86513570138878],[-118.22505842821263,36.86517958610997],[-118.22509276884789,36.86522249955811]],[[-118.22564549103424,36.865270884744696],[-118.2255692154004,36.865131052172245],[-118.22552892194392,36.86513687613001],[-118.22550139744875,36.86509930095151],[-118.22541416694663,36.865116425743096],[-118.2254569651097,36.86526742049577],[-118.22564549103424,36.865270884744696]],[[-118.22665041970632,36.865395727081356],[-118.22676258156302,36.865253950131255],[-118.22674808407882,36.86518919862117],[-118.22661270654102,36.86514192012024],[-118.22651978362043,36.86522400564078],[-118.22646585735944,36.865219153754474],[-118.22646516583617,36.86517589344772],[-118.22651167054443,36.86513755448641],[-118.22647603255533,36.865013528384864],[-118.22628008589069,36.864966874575614],[-118.22619993136985,36.86500556065019],[-118.22620752554576,36.8650595666006],[-118.22589147641881,36.86507905248251],[-118.2257709417589,36.86511815479959],[-118.22568561177953,36.86525424566667],[-118.22582392643037,36.86548538157173],[-118.22590425444578,36.86545751081963],[-118.22606620649265,36.86548288223929],[-118.2261193551675,36.86543906645462],[-118.22619433578011,36.86549778556402],[-118.22641780885255,36.86558201444544],[-118.22650521252478,36.8655757039886],[-118.2265582745581,36.865526480473804],[-118.22661936330613,36.86555830053846],[-118.22671341047737,36.865546512927295],[-118.22673221712968,36.8654597839167],[-118.22665041970632,36.865395727081356]],[[-118.22465704878843,36.865757016716096],[-118.22469000839666,36.86571340961272],[-118.22466843727673,36.86562709701184],[-118.22451347426009,36.86561787696569],[-118.22450821140917,36.86570987452255],[-118.22458301846903,36.86575777958055],[-118.22465704878843,36.865757016716096]],[[-118.22546346401158,36.866938558416166],[-118.22556458873137,36.86694833243599],[-118.22564974795068,36.86680142657811],[-118.22560125497286,36.86671539182911],[-118.22554077035667,36.866721424028185],[-118.22543490239971,36.86683609277811],[-118.22546346401158,36.866938558416166]],[[-118.22665090623258,36.867110194180526],[-118.22681786272223,36.8670273443107],[-118.22684374558867,36.86696217596522],[-118.22694383272656,36.86690705837708],[-118.22686056350643,36.86675107362099],[-118.22668341911184,36.86661769155273],[-118.2265759968783,36.86663502562687],[-118.22647229175806,36.86688488369144],[-118.22631232462349,36.86698388624104],[-118.22643510943739,36.867085379293385],[-118.22665090623258,36.867110194180526]],[[-118.22549833132895,36.867435774350916],[-118.22556580583617,36.86744589537074],[-118.22560756907762,36.86753199952634],[-118.22572888514506,36.86754156515867],[-118.22595641516752,36.86745809170268],[-118.22600197092552,36.867360270014636],[-118.22575752500029,36.86722758087797],[-118.2256368141465,36.86725586803245],[-118.22541454617763,36.86724734332034],[-118.22526725996441,36.867297537849204],[-118.22529918348268,36.86718904011553],[-118.22516034905381,36.86692545845559],[-118.22505214889172,36.86689412330946],[-118.22489554291514,36.866782160553036],[-118.22467275844929,36.866741189183564],[-118.22458362701181,36.86663934750274],[-118.22448862876867,36.86659165050525],[-118.22450683973521,36.8677326415583],[-118.2245680157601,36.867769870189235],[-118.22475646151004,36.867767928195306],[-118.22527943104339,36.867638143395475],[-118.22533214979572,36.86756729025018],[-118.22530910915401,36.867389049658186],[-118.22527502648488,36.86736235892431],[-118.22530151533161,36.86733504366369],[-118.22531583932441,36.867388980265055],[-118.22541765561252,36.86744201470673],[-118.22535000838828,36.8674210785252],[-118.22535061297025,36.8674589312951],[-118.22545234299949,36.867506558165914],[-118.22549410614974,36.86759266236228],[-118.22555476422276,36.86759744525112],[-118.22555933481226,36.86746218739248],[-118.22545165199023,36.86746329785944],[-118.22549833132895,36.867435774350916]],[[-118.22610205919975,36.867305153118444],[-118.22614174877235,36.86726147618855],[-118.22622975939478,36.86729301865934],[-118.22626315089468,36.86727644881942],[-118.22619230578644,36.86705543424723],[-118.22595036641022,36.86707956407824],[-118.2258304334798,36.86715651926453],[-118.22583095189101,36.86718896449149],[-118.22591939434967,36.86724754488472],[-118.22610205919975,36.867305153118444]],[[-118.22550274421161,36.86813341614943],[-118.22535562911752,36.86819442588627],[-118.22537702906472,36.8682699232229],[-118.22535683832209,36.86827013141579],[-118.22528211466454,36.868227634456765],[-118.22528754940629,36.868146451993795],[-118.22519323972749,36.868142015919375],[-118.22518590497472,36.86810423253891],[-118.2253404412273,36.868086413920516],[-118.22535346983487,36.86805923743822],[-118.22529928253276,36.86803816244587],[-118.2253113611011,36.86795150304819],[-118.22546598339177,36.867939091810264],[-118.22550593279414,36.867911637698136],[-118.22551171281172,36.86785208537692],[-118.22565908630256,36.86780729807057],[-118.22566538454782,36.86778019096896],[-118.22522748944468,36.86775766436519],[-118.22520100042951,36.8677849796106],[-118.22460296154769,36.86785063652251],[-118.22450977429966,36.86791649791523],[-118.22451892340675,36.868489697107854],[-118.22455292001504,36.86851098051009],[-118.22465223687944,36.86882905433817],[-118.22474050772882,36.86887682049775],[-118.22474137103382,36.86893089588231],[-118.22466785560731,36.868964104086594],[-118.22473679898735,36.869066153704885],[-118.22475164093476,36.86915253558964],[-118.22479064153826,36.869065598786875],[-118.22483835813445,36.869102965980275],[-118.2248989310309,36.86910234164352],[-118.22480600156135,36.8691844258923],[-118.22509773732364,36.86932744625488],[-118.22514027837165,36.86946221837358],[-118.22523605791723,36.86955858258654],[-118.22545954194665,36.86964281301549],[-118.22560087966373,36.86964135542483],[-118.2256356546468,36.8697113063219],[-118.225709515949,36.86969972766056],[-118.22574877492971,36.86962901317338],[-118.22608339179038,36.86950657585249],[-118.22612256389958,36.86943045371251],[-118.22618287772416,36.86941360611135],[-118.22621575152894,36.86936459106299],[-118.22631049496198,36.86939606397036],[-118.22639099974253,36.86937900790447],[-118.22652413680392,36.869285690594545],[-118.22672518209006,36.86922953113824],[-118.22711941695266,36.869046982783125],[-118.2272122572277,36.86895948923842],[-118.22736653510484,36.86892544536469],[-118.2274398762374,36.86888142044666],[-118.22747870059358,36.868783667750314],[-118.22751217897877,36.868772505089446],[-118.22746454784276,36.86874054652108],[-118.2274770566594,36.86868092462201],[-118.22758378927756,36.86862032942656],[-118.2276032878451,36.86857686059019],[-118.22783315554086,36.86863938691767],[-118.22798061565135,36.8686000042671],[-118.22799217190271,36.86848089946566],[-118.22790329369705,36.868395283020064],[-118.2268707824786,36.8678110200859],[-118.22651830475291,36.86765781409588],[-118.22640380505992,36.867653587356],[-118.22635548355933,36.86757836802514],[-118.22624098398954,36.86757414112595],[-118.22610077360339,36.86764589738764],[-118.22609248782172,36.86754863116126],[-118.2261735092909,36.86756402049346],[-118.22619999787955,36.86753670503804],[-118.22620638234278,36.86751500544725],[-118.22615901180966,36.867499268935035],[-118.22599757394725,36.867506342952446],[-118.22590447474602,36.86757761295022],[-118.22587910932374,36.867675226326746],[-118.22591422925404,36.86776680732532],[-118.22621752047655,36.86779072037029],[-118.22611078787972,36.86785131434536],[-118.22604987032068,36.867830309134554],[-118.22606384925751,36.86786261548305],[-118.22603045746139,36.86787918527086],[-118.22584882814567,36.867886467402755],[-118.22582216650534,36.86790296770848],[-118.22583657738467,36.86796231177045],[-118.2257495165243,36.867990251933094],[-118.22576366816634,36.86803337339222],[-118.22573044902482,36.86806075817223],[-118.22565598455093,36.86803448405896],[-118.22560939130139,36.86806741516984],[-118.22560369773718,36.86813237503001],[-118.22550274421161,36.86813341614943]],[[-118.22452807277259,36.86906289624311],[-118.22499307909787,36.86993967744296],[-118.22512855060315,36.86999236515101],[-118.22524158548089,36.86990466493491],[-118.22519973491309,36.86981315316386],[-118.22527238719677,36.869725869258346],[-118.22523140037026,36.869688432862056],[-118.22501671926446,36.8697339135157],[-118.22496926122942,36.86971276901843],[-118.22487175497801,36.869508253838426],[-118.22478960931579,36.86942256566443],[-118.22476760525375,36.869309215465535],[-118.22461548059808,36.86905658710411],[-118.22452807277259,36.86906289624311]],[[-118.22510482431711,36.87019272155117],[-118.22527576227549,36.87035862040517],[-118.22525988301203,36.87020734818399],[-118.22529931540546,36.87014744891127],[-118.22529819254868,36.87007715094034],[-118.22518317108228,36.87004047787258],[-118.2250961939922,36.87007382513134],[-118.22510482431711,36.87019272155117]],[[-118.22456924812107,36.87164229164186],[-118.22489205522317,36.87162273941831],[-118.22507231171276,36.87152893802338],[-118.22509828384685,36.87146917758661],[-118.22523876121194,36.871413645012744],[-118.22523789747858,36.871359569660896],[-118.22520407214222,36.87134910156195],[-118.22507075719902,36.871431602385506],[-118.22495409307417,36.87129218596096],[-118.22495288413432,36.871216480458614],[-118.2250519418275,36.871096473945144],[-118.2250705788271,36.87099893014547],[-118.22482801798044,36.870563347933675],[-118.224780645814,36.870547610909284],[-118.2246833115983,36.87035391068742],[-118.22458080128897,36.87025761540349],[-118.22460038828689,36.870219554570205],[-118.22456621825057,36.87018745612646],[-118.22454602699722,36.87018766419084],[-118.22456924812107,36.87164229164186]],[[-118.2256741715029,36.87127935268169],[-118.22576822583041,36.87126756569794],[-118.22584415268243,36.87096391065327],[-118.22575527387231,36.8708782926448],[-118.22571324932255,36.870775966020865],[-118.2255359245952,36.870631767394435],[-118.22545947077731,36.87048111989849],[-118.22531657673922,36.870385241703175],[-118.22525591646797,36.870380458735234],[-118.22524306019591,36.87041845027646],[-118.22528361556036,36.87042884897718],[-118.22537309797988,36.870552320113916],[-118.22545826906226,36.87082727157118],[-118.22556690694817,36.870885643896976],[-118.2256696785406,36.870998160885975],[-118.22561790822728,36.8711284970601],[-118.2256741715029,36.87127935268169]],[[-118.22668580872892,36.87097685918496],[-118.22673904723695,36.87093845063173],[-118.22687382976984,36.870947876027834],[-118.22687952239761,36.87088291615291],[-118.22671004991135,36.87080894776306],[-118.22658864210393,36.87079397570212],[-118.22640165876156,36.870887848803505],[-118.22645024185677,36.870979290634665],[-118.22668580872892,36.87097685918496]],[[-118.2262589478467,36.87122464391296],[-118.22633997325016,36.871240033050206],[-118.22633954099783,36.87121299538471],[-118.2262589478467,36.87122464391296]],[[-118.22688666171038,36.87259190458475],[-118.2269666506928,36.872542402894354],[-118.22697613296596,36.87229351749027],[-118.22692237468864,36.872299480970725],[-118.22670474710466,36.87216110870788],[-118.22654925188692,36.8721194463839],[-118.22651456138911,36.87205490334941],[-118.22642067914872,36.87207750600244],[-118.22633473777317,36.872175744575834],[-118.2263288717128,36.872229889356696],[-118.22652959279493,36.87257395692685],[-118.22688666171038,36.87259190458475]]],[[[-118.23114092065254,36.87341849372252],[-118.23079092770368,36.87342228646981],[-118.2307909250186,36.873422119137075],[-118.23114092065254,36.87341849372252]]],[[[-118.2306428499288,36.87342365296646],[-118.23068936006614,36.873385479466926],[-118.23079066739041,36.873406063903595],[-118.2307909250186,36.873422119137075],[-118.2306428499288,36.87342365296646]]],[[[-118.2306428499288,36.87342365296646],[-118.23023901138784,36.873428001660145],[-118.23023900873301,36.87342783613793],[-118.2306428499288,36.87342365296646]]],[[[-118.22769480778965,36.8734541901328],[-118.22754673444709,36.87345584390298],[-118.22754673252757,36.873455723963964],[-118.22769480778965,36.8734541901328]]],[[[-118.22745250281103,36.87345670003838],[-118.22748563894413,36.87342402447955],[-118.22754638827709,36.87343421378846],[-118.22754673252757,36.873455723963964],[-118.22745250281103,36.87345670003838]]],[[[-118.22745250281103,36.87345670003838],[-118.22723712236188,36.873459041851966],[-118.22723712058931,36.87345893106576],[-118.22745250281103,36.87345670003838]]],[[[-118.22669193426263,36.87346457835463],[-118.22646982263589,36.87346696372849],[-118.22646982128272,36.873466879102274],[-118.22669193426263,36.87346457835463]]],[[[-118.22614001712684,36.873470295364285],[-118.22459868695978,36.87348626122537],[-118.22459868695883,36.87348626116583],[-118.22614001712684,36.873470295364285]]],[[[-118.23601393199958,36.873368016846314],[-118.23596681825161,36.873368564449436],[-118.23596681729175,36.87336850488197],[-118.23601393199958,36.873368016846314]]],[[[-118.23577835845215,36.87337045702466],[-118.23581839504897,36.873348474443944],[-118.23596655684435,36.87335234191472],[-118.23596681729175,36.87336850488197],[-118.23577835845215,36.87337045702466]]],[[[-118.23577835845215,36.87337045702466],[-118.23263513475143,36.87340317078528],[-118.23263513226391,36.873403015996495],[-118.23577835845215,36.87337045702466]]],[[[-118.23252744136504,36.87340413150799],[-118.23255358453862,36.873355340900936],[-118.23263487404837,36.87338694823027],[-118.23263513226391,36.873403015996495],[-118.23252744136504,36.87340413150799]]]]}}]}