{
"type": "FeatureCollection",
"name": "IND026_adjoining_parcels_wgs84",
"crs": { "type": "name", "properties": { "name": "urn:ogc:def:crs:OGC:1.3:CRS84" } },
"features": [
{ "type": "Feature", "properties": { "NEW": 524, "AREA": 1934210.0, "PERIMETER": 13251.669433, "ACRES": 477.9, "USGS_QUAD": "IND", "PCL": "IND023", "PARCEL": 23, "VEG_CLASS": 35210, "TYPE": "A", "DATA": "Y", "WELLFIELD": "O", "LIVE_COVER": 21.0, "SPECIES1": "ARTRT", "COMP1": 70, "SPECIES2": "CHNA2", "COMP2": 10, "SPECIES3": "PSARM", "COMP3": 4, "SPECIES4": "EPNE", "COMP4": 3, "SPECIES5": "ATCA2", "COMP5": 2, "SPECIES6": "GRSP", "COMP6": 1, "SPECIES7": "PSPO", "COMP7": 1, "SPECIES8": null, "COMP8": 0, "SPECIES9": null, "COMP9": 0, "SPECIES10": null, "COMP10": 0, "SPECIES11": null, "COMP11": 0, "SPECIES12": null, "COMP12": 0, "ALL_SPECIE": "ARTRTCHNA2PSARMEPNEATCA2GRSPPSPO", "ROOTDEPTH": 6, "PHASE1": 0, "MERGE_PCL": "BLK097", "ZBRID_CLA": 2 }, "geometry": { "type": "Polygon", "coordinates": [ [ [ -118.250927693822945, 36.891212889438549 ], [ -118.250930624968376, 36.911587370997644 ], [ -118.250843847733776, 36.91157926915956 ], [ -118.250796794059767, 36.911189897736982 ], [ -118.250776475976537, 36.91112701085018 ], [ -118.250715162830502, 36.910938356241658 ], [ -118.250551137251477, 36.910818385534427 ], [ -118.250209218596098, 36.910738596888429 ], [ -118.250059378527567, 36.910541855617971 ], [ -118.249991698858736, 36.910091854556789 ], [ -118.249690855012403, 36.91001388305375 ], [ -118.249595222812815, 36.909936013758752 ], [ -118.249459021887859, 36.909543068237767 ], [ -118.249487262837377, 36.909037973271637 ], [ -118.248995692258731, 36.908664533960305 ], [ -118.248434698091899, 36.90855097908873 ], [ -118.248010888586748, 36.908460772251445 ], [ -118.247587228137675, 36.908185772678102 ], [ -118.247218437511265, 36.90783357333774 ], [ -118.2468770237912, 36.907503620294499 ], [ -118.246946863777282, 36.906880905081586 ], [ -118.247111773458002, 36.906345083088816 ], [ -118.247263040756209, 36.905962645712066 ], [ -118.247269403977839, 36.905642572266949 ], [ -118.247729252156745, 36.905297464707346 ], [ -118.248195017949939, 36.904950041043087 ], [ -118.248277160926193, 36.904910868098789 ], [ -118.248865995758962, 36.904625249427134 ], [ -118.249441354360684, 36.904287939391374 ], [ -118.249934309703676, 36.904016842215761 ], [ -118.250181031063789, 36.903788895331651 ], [ -118.250304437853487, 36.903548720271864 ], [ -118.250141175270997, 36.903065917634351 ], [ -118.249895865913487, 36.902649331229199 ], [ -118.249500014712183, 36.902056291230167 ], [ -118.249282528925775, 36.901409545971184 ], [ -118.249338006166127, 36.900983037687311 ], [ -118.249434639754227, 36.900391589306466 ], [ -118.249189329635357, 36.899909646081426 ], [ -118.248670406523516, 36.899403529051277 ], [ -118.24816519394966, 36.898985157619357 ], [ -118.247783249129753, 36.898468586657266 ], [ -118.247469357073456, 36.897973835582945 ], [ -118.246964634084947, 36.897282771827619 ], [ -118.246705652887144, 36.8968212482852 ], [ -118.246309864621438, 36.89633636755827 ], [ -118.246091317874971, 36.896117803258761 ], [ -118.245667724549435, 36.895928429948121 ], [ -118.24479317005293, 36.895311085434173 ], [ -118.244370724609823, 36.894630415838066 ], [ -118.244070410294057, 36.89419185254296 ], [ -118.243647474407453, 36.893653161700804 ], [ -118.243278915320957, 36.893244607220453 ], [ -118.242746721155015, 36.892585359590036 ], [ -118.242829271193145, 36.892377168505803 ], [ -118.242966234571625, 36.892215734741583 ], [ -118.24315804423334, 36.892062744139572 ], [ -118.243240598104848, 36.891919905628903 ], [ -118.243131486061927, 36.891722731682329 ], [ -118.24299469984976, 36.891721905333284 ], [ -118.242857728142724, 36.891709814769193 ], [ -118.242734960189225, 36.891643488782847 ], [ -118.242748992275779, 36.891492352132495 ], [ -118.242817535004406, 36.891372196760692 ], [ -118.242981811647411, 36.89120822553889 ], [ -118.243160285257105, 36.890990018907004 ], [ -118.243174425723353, 36.890629299369941 ], [ -118.243093012129378, 36.890366480847305 ], [ -118.24284726553482, 36.890177492307465 ], [ -118.242422770258656, 36.890319392704136 ], [ -118.241944194550612, 36.890283819766466 ], [ -118.241684785837734, 36.890052155002124 ], [ -118.241479760248566, 36.889930346446171 ], [ -118.241280132713499, 36.889860313600693 ], [ -118.241001527835934, 36.889764060226724 ], [ -118.24097447469093, 36.889566028784238 ], [ -118.241111583189351, 36.889413609275159 ], [ -118.241221326029418, 36.889238940608024 ], [ -118.24112588717972, 36.88901908551761 ], [ -118.241058177179823, 36.888735840598386 ], [ -118.241044972102529, 36.888418222529047 ], [ -118.241223277164522, 36.888211288748565 ], [ -118.241483490210044, 36.888059839836387 ], [ -118.241975709375978, 36.888072735702622 ], [ -118.242290625502889, 36.88798606731698 ], [ -118.24253717510544, 36.887857292988059 ], [ -118.242783642151451, 36.887550487533659 ], [ -118.242470034765361, 36.887154879191641 ], [ -118.242251686779227, 36.886859686254098 ], [ -118.242156238030759, 36.886682648346245 ], [ -118.241856141582815, 36.886298163335944 ], [ -118.24136490577699, 36.885825528799309 ], [ -118.241036623426609, 36.885714018176969 ], [ -118.240558105408056, 36.8857235145232 ], [ -118.239942435747267, 36.885752462602504 ], [ -118.23943619935811, 36.885847878173522 ], [ -118.238943504165235, 36.886130195963233 ], [ -118.238286311854552, 36.886389433848791 ], [ -118.237780250644676, 36.886496106563065 ], [ -118.237123206444437, 36.886656178533499 ], [ -118.236740080941772, 36.88684044520749 ], [ -118.236384285597964, 36.88693653950039 ], [ -118.236357748141344, 36.886508635229795 ], [ -118.23601563950227, 36.886561765300826 ], [ -118.235632677224444, 36.886604052395619 ], [ -118.235454852660311, 36.886558572310101 ], [ -118.235345951684039, 36.886307301736636 ], [ -118.235606350639898, 36.886101776675147 ], [ -118.235688728121687, 36.885816970688104 ], [ -118.235771302140449, 36.885565967546405 ], [ -118.235990636930069, 36.885358615576273 ], [ -118.236387623996066, 36.885142656951459 ], [ -118.236812106001238, 36.885000778126667 ], [ -118.237168233535712, 36.884643266980746 ], [ -118.237387714060631, 36.884271399869291 ], [ -118.237128866466819, 36.883920278893136 ], [ -118.236609630010435, 36.883578621371591 ], [ -118.236282036956268, 36.88335666633165 ], [ -118.235885896540765, 36.883058798279819 ], [ -118.235695114441398, 36.88270922206307 ], [ -118.235367537737019, 36.882379090186667 ], [ -118.235176543187251, 36.882081347742186 ], [ -118.235122668176885, 36.881719079431761 ], [ -118.235082322656865, 36.881347656974881 ], [ -118.234837181500666, 36.880953569817308 ], [ -118.234618845534044, 36.880721463039428 ], [ -118.234455579968625, 36.880337791978782 ], [ -118.234250739292619, 36.880028923127867 ], [ -118.233827479151188, 36.879853023854658 ], [ -118.233320763826057, 36.880112927277565 ], [ -118.233142951504163, 36.88019815200721 ], [ -118.232855416045936, 36.880241693979684 ], [ -118.232268181924681, 36.87998635870948 ], [ -118.23184437981017, 36.879907361490453 ], [ -118.231474952217596, 36.879960763458094 ], [ -118.231338188930238, 36.879894570297267 ], [ -118.231612387007644, 36.879610034989263 ], [ -118.232186981158208, 36.879493665469987 ], [ -118.232529247839992, 36.879321104587213 ], [ -118.232611641069383, 36.879124189943688 ], [ -118.232502551210217, 36.878947285140868 ], [ -118.232106289105815, 36.878748565815954 ], [ -118.231709845710782, 36.878822527862241 ], [ -118.231285373676641, 36.879007204927277 ], [ -118.230792670425757, 36.879179065234986 ], [ -118.230518977495549, 36.879276543240067 ], [ -118.230355016606495, 36.879154290655372 ], [ -118.230464965418449, 36.879013434395759 ], [ -118.230588028330359, 36.878881453923398 ], [ -118.230479157253455, 36.878783421032487 ], [ -118.230246673367404, 36.878761034594739 ], [ -118.230000848087215, 36.878628359055135 ], [ -118.230083074109643, 36.878508069314591 ], [ -118.23063010974036, 36.878466358912739 ], [ -118.231108616112067, 36.878524512775449 ], [ -118.23154641322121, 36.878492941425243 ], [ -118.231833811616838, 36.878397571531728 ], [ -118.23158781541251, 36.878276169374637 ], [ -118.23131428747358, 36.87827449167375 ], [ -118.231027236127417, 36.878216613788723 ], [ -118.230972892457586, 36.878063932731202 ], [ -118.231150860854157, 36.877944906894044 ], [ -118.231520098123852, 36.877880239569372 ], [ -118.231821149507411, 36.877892900375301 ], [ -118.232108522305637, 36.87775245903061 ], [ -118.232068032880761, 36.877545547983331 ], [ -118.232171275447541, 36.877467858062268 ], [ -118.232246167720419, 36.877415250440379 ], [ -118.23267009304675, 36.877284662685661 ], [ -118.233258706993141, 36.877125324064103 ], [ -118.233764883129226, 36.876942045564228 ], [ -118.234093594525461, 36.876625391378198 ], [ -118.234259058418587, 36.876078309670554 ], [ -118.234164019933473, 36.875750272205082 ], [ -118.234123317959259, 36.875552377739972 ], [ -118.234366217624228, 36.875132947120463 ], [ -118.234342678597031, 36.874955141274377 ], [ -118.234369685989819, 36.874912042488624 ], [ -118.234478328261304, 36.874647246501688 ], [ -118.234477409142883, 36.874372320409776 ], [ -118.234298755921898, 36.874099234702967 ], [ -118.234475225976254, 36.873691760796454 ], [ -118.234816539282804, 36.873701742036403 ], [ -118.235171539755029, 36.873668763815154 ], [ -118.235389211905044, 36.873425372489002 ], [ -118.235729457010649, 36.873086057288731 ], [ -118.236876644040549, 36.873105695510041 ], [ -118.23706733255554, 36.872950468993309 ], [ -118.237080287129388, 36.872731738153291 ], [ -118.237230115252373, 36.87260848636749 ], [ -118.237161011893974, 36.872345537114313 ], [ -118.236941837990301, 36.872147245613753 ], [ -118.23657281990846, 36.871984312827564 ], [ -118.236189381073757, 36.871666030936439 ], [ -118.235943414259879, 36.87163252718527 ], [ -118.235423363370913, 36.871757364929685 ], [ -118.235201378969705, 36.87140585624681 ], [ -118.235355440431206, 36.871392989483219 ], [ -118.23543693743467, 36.871250169107554 ], [ -118.235517695130255, 36.8709743930401 ], [ -118.235639646088245, 36.870644104549143 ], [ -118.235734448691005, 36.870347900441836 ], [ -118.235925170586441, 36.870260285472362 ], [ -118.236280503533536, 36.87029265371897 ], [ -118.236635266585594, 36.87024615066818 ], [ -118.236812494583461, 36.87010458726489 ], [ -118.236964214289983, 36.869794270256477 ], [ -118.237002810556547, 36.869861477065598 ], [ -118.237181138224969, 36.870179633355903 ], [ -118.237496960925185, 36.870696929132073 ], [ -118.237826262472097, 36.871180278834835 ], [ -118.237909234074962, 36.87147689090564 ], [ -118.238115800211503, 36.871936726811825 ], [ -118.238294343098929, 36.872311218497344 ], [ -118.238610159598835, 36.872848793268709 ], [ -118.238843944144122, 36.873321867565686 ], [ -118.238981255488198, 36.873552557865665 ], [ -118.239255498913408, 36.873903515364276 ], [ -118.239598289417415, 36.874330380040298 ], [ -118.239761185150741, 36.874950674283525 ], [ -118.239506708889763, 36.875151655648331 ], [ -118.239771547209017, 36.875353973652246 ], [ -118.239852767803839, 36.875693418835283 ], [ -118.239784058122567, 36.875933014854212 ], [ -118.239646517462432, 36.876382909860659 ], [ -118.23979610656734, 36.876786996255881 ], [ -118.23993254827603, 36.876898254117229 ], [ -118.240205741639272, 36.877053160723072 ], [ -118.240533295276833, 36.877295387779313 ], [ -118.240943593367277, 36.877320407747071 ], [ -118.241162544367143, 36.877286574983664 ], [ -118.241463081729293, 36.877375838189913 ], [ -118.241476804150594, 36.877508658231207 ], [ -118.241134222616139, 36.877746601255119 ], [ -118.240833026019544, 36.877898476780608 ], [ -118.240326699193545, 36.878158408324197 ], [ -118.240244498651151, 36.878235886098182 ], [ -118.240339398428915, 36.878575188231714 ], [ -118.240543737755701, 36.879003492024871 ], [ -118.240679826107126, 36.879331096311802 ], [ -118.240624641462745, 36.879669709775413 ], [ -118.240732927523453, 36.880164367098935 ], [ -118.241019623847208, 36.880416034450406 ], [ -118.241470140128001, 36.880758389552597 ], [ -118.241784398041048, 36.880957932801074 ], [ -118.241865633731948, 36.881405547796902 ], [ -118.242001754433161, 36.881712867980255 ], [ -118.242206272968858, 36.882064547651503 ], [ -118.242794365952335, 36.882002070809087 ], [ -118.243054232194112, 36.882003864703925 ], [ -118.243190536288807, 36.882257094527361 ], [ -118.243340361108935, 36.882652159694139 ], [ -118.243421432188342, 36.883045690446671 ], [ -118.243612469327203, 36.883408774390261 ], [ -118.243830149123127, 36.883922570057315 ], [ -118.244089231126793, 36.88426466018462 ], [ -118.244362483760739, 36.884507443637808 ], [ -118.244717770407874, 36.884684015794164 ], [ -118.244977156534162, 36.884893140136143 ], [ -118.24505842858234, 36.885363286471083 ], [ -118.245002296767183, 36.885988114604253 ], [ -118.24512495679744, 36.886372192933528 ], [ -118.245247564626141, 36.886623311096677 ], [ -118.245520796624689, 36.886712849367761 ], [ -118.245725961026565, 36.886735493999865 ], [ -118.245972147363446, 36.886757706655693 ], [ -118.246135817212803, 36.887010646403816 ], [ -118.246244130483049, 36.887525581894735 ], [ -118.246311449509236, 36.888128835965468 ], [ -118.246502015522012, 36.888633896274847 ], [ -118.246788292623293, 36.889115414994308 ], [ -118.247252900977116, 36.88939224685263 ], [ -118.247703791279719, 36.889601610812676 ], [ -118.248154396305736, 36.889901120165298 ], [ -118.248673699719731, 36.890154836356835 ], [ -118.249124768472228, 36.890310108382728 ], [ -118.249603376950844, 36.890390720677686 ], [ -118.249914516943122, 36.890416750194539 ], [ -118.249923893171754, 36.89114230451662 ], [ -118.25074106653517, 36.891144988192536 ], [ -118.250927642111122, 36.891145282489262 ], [ -118.250927693822945, 36.891212889438549 ] ] ] } },
{ "type": "Feature", "properties": { "NEW": 525, "AREA": 306748.930498, "PERIMETER": 4131.804879, "ACRES": 75.8, "USGS_QUAD": "IND", "PCL": "IND024", "PARCEL": 24, "VEG_CLASS": 45310, "TYPE": "C", "DATA": "Y", "WELLFIELD": "I", "LIVE_COVER": 60.0, "SPECIES1": "DISPS2", "COMP1": 33, "SPECIES2": "SPAI", "COMP2": 25, "SPECIES3": "CHNA2", "COMP3": 15, "SPECIES4": "ATTO", "COMP4": 9, "SPECIES5": "LETR", "COMP5": 6, "SPECIES6": "JUBA", "COMP6": 5, "SPECIES7": null, "COMP7": 0, "SPECIES8": null, "COMP8": 0, "SPECIES9": null, "COMP9": 0, "SPECIES10": null, "COMP10": 0, "SPECIES11": null, "COMP11": 0, "SPECIES12": null, "COMP12": 0, "ALL_SPECIE": "DISPS2SPAICHNA2ATTOLETRJUBA", "ROOTDEPTH": 2, "PHASE1": 0, "MERGE_PCL": "BLK103", "ZBRID_CLA": 4 }, "geometry": { "type": "Polygon", "coordinates": [ [ [ -118.234342678597031, 36.874955141274377 ], [ -118.234366217624228, 36.875132947120463 ], [ -118.234123317959259, 36.875552377739972 ], [ -118.234164019933473, 36.875750272205082 ], [ -118.234259058418587, 36.876078309670554 ], [ -118.234093594525461, 36.876625391378198 ], [ -118.233764883129226, 36.876942045564228 ], [ -118.233258706993141, 36.877125324064103 ], [ -118.23267009304675, 36.877284662685661 ], [ -118.232246167720419, 36.877415250440379 ], [ -118.232171275447541, 36.877467858062268 ], [ -118.231712768734823, 36.877366685082016 ], [ -118.231384381722947, 36.877442196542447 ], [ -118.231028302810103, 36.877671236384671 ], [ -118.230631168167804, 36.877898447246459 ], [ -118.230398666779067, 36.877984233177934 ], [ -118.230083921015378, 36.878079882160655 ], [ -118.229714515244936, 36.878090457356713 ], [ -118.229126442790644, 36.878087516151709 ], [ -118.228894980411454, 36.877691020547104 ], [ -118.228526252501354, 36.877415383496768 ], [ -118.22825308277578, 36.877348339589034 ], [ -118.227828427056451, 36.877587093378438 ], [ -118.226952259216205, 36.878096421288305 ], [ -118.226774459334806, 36.878050927812495 ], [ -118.22662492598883, 36.877624287687254 ], [ -118.226516938305807, 36.877032708001117 ], [ -118.226503274422271, 36.876967495602031 ], [ -118.226613551375351, 36.87660578637098 ], [ -118.227256699872441, 36.876391828438372 ], [ -118.22754404444332, 36.876337033629838 ], [ -118.228200512942237, 36.876210823115244 ], [ -118.228610607504649, 36.876267438222577 ], [ -118.229116604449644, 36.876291513765999 ], [ -118.229513551143157, 36.876118396968735 ], [ -118.230033933636946, 36.875793012925961 ], [ -118.230608655477596, 36.875554954811989 ], [ -118.230868670305867, 36.875545505524777 ], [ -118.231224590300727, 36.875438160317472 ], [ -118.231498112676917, 36.875309131975925 ], [ -118.231796671258593, 36.875123502255143 ], [ -118.231814901831058, 36.875123313639136 ], [ -118.231806972157386, 36.874956611618778 ], [ -118.231884181632594, 36.874917503174878 ], [ -118.232265971064734, 36.874740027163398 ], [ -118.23262061568056, 36.874553814893694 ], [ -118.232838490138789, 36.874409584366902 ], [ -118.232960989851279, 36.874221267769549 ], [ -118.232974133357359, 36.874079154647426 ], [ -118.232645577297006, 36.87385945355684 ], [ -118.232236080623949, 36.87386143780769 ], [ -118.231894214578062, 36.873729759947167 ], [ -118.231824947467913, 36.873455540929527 ], [ -118.232288950443291, 36.873376370129662 ], [ -118.232753166718993, 36.873310718249925 ], [ -118.232944041495614, 36.873232120251764 ], [ -118.232970477185859, 36.872891555299816 ], [ -118.232682244395704, 36.872475372474504 ], [ -118.232040270122425, 36.872409902644513 ], [ -118.231480546235844, 36.87251034467419 ], [ -118.230715684595665, 36.872412335921965 ], [ -118.230168730737986, 36.872237701709103 ], [ -118.229443473779895, 36.871810250286451 ], [ -118.228814306848633, 36.871449410512092 ], [ -118.228321875039683, 36.871197583442331 ], [ -118.228292549876031, 36.871073938701784 ], [ -118.228266630395538, 36.870966034051825 ], [ -118.228315084572458, 36.870904687844103 ], [ -118.22838897387031, 36.870811528734542 ], [ -118.228607041943945, 36.870635753437405 ], [ -118.228687656325363, 36.870218008598144 ], [ -118.228768277426056, 36.869822798014887 ], [ -118.228958784287173, 36.869633785850453 ], [ -118.22925908129227, 36.869601387660168 ], [ -118.229601803792292, 36.869962929158987 ], [ -118.229876356549454, 36.870424332110794 ], [ -118.230245389667203, 36.870589537944703 ], [ -118.23073728765327, 36.870676851076205 ], [ -118.231461443616254, 36.870795565208134 ], [ -118.231927087944811, 36.871234704594698 ], [ -118.232296295777886, 36.871388633849783 ], [ -118.23270629744691, 36.871440729053752 ], [ -118.233184362740275, 36.871474090372971 ], [ -118.23374537520111, 36.871781526020349 ], [ -118.234265145462302, 36.872053329207347 ], [ -118.234947227549824, 36.871931322869358 ], [ -118.235288171486843, 36.871788065827957 ], [ -118.235423363370913, 36.871757364929685 ], [ -118.235943414259879, 36.87163252718527 ], [ -118.236189381073757, 36.871666030936439 ], [ -118.23657281990846, 36.871984312827564 ], [ -118.236941837990301, 36.872147245613753 ], [ -118.237161011893974, 36.872345537114313 ], [ -118.237230115252373, 36.87260848636749 ], [ -118.237080287129388, 36.872731738153291 ], [ -118.23706733255554, 36.872950468993309 ], [ -118.236876644040549, 36.873105695510041 ], [ -118.235729457010649, 36.873086057288731 ], [ -118.235389211905044, 36.873425372489002 ], [ -118.235171539755029, 36.873668763815154 ], [ -118.234816539282804, 36.873701742036403 ], [ -118.234475225976254, 36.873691760796454 ], [ -118.234298755921898, 36.874099234702967 ], [ -118.234477409142883, 36.874372320409776 ], [ -118.234478328261304, 36.874647246501688 ], [ -118.234369685989819, 36.874912042488624 ], [ -118.234342678597031, 36.874955141274377 ] ] ] } },
{ "type": "Feature", "properties": { "NEW": 526, "AREA": 478622.14866300003, "PERIMETER": 5320.651702, "ACRES": 118.3, "USGS_QUAD": "IND", "PCL": "IND025", "PARCEL": 25, "VEG_CLASS": 45310, "TYPE": "C", "DATA": "Y", "WELLFIELD": "O", "LIVE_COVER": 70.0, "SPECIES1": "JUBA", "COMP1": 35, "SPECIES2": "DISPS2", "COMP2": 25, "SPECIES3": "SPAI", "COMP3": 15, "SPECIES4": "PHCO15", "COMP4": 6, "SPECIES5": "TYLA", "COMP5": 3, "SPECIES6": "SALIX", "COMP6": 3, "SPECIES7": "CHNA2", "COMP7": 3, "SPECIES8": "LETR", "COMP8": 3, "SPECIES9": null, "COMP9": 0, "SPECIES10": null, "COMP10": 0, "SPECIES11": null, "COMP11": 0, "SPECIES12": null, "COMP12": 0, "ALL_SPECIE": "JUBADISPS2SPAIPHCO15TYLASALIXCHNA2LETR", "ROOTDEPTH": 2, "PHASE1": 0, "MERGE_PCL": "BLK102", "ZBRID_CLA": 4 }, "geometry": { "type": "Polygon", "coordinates": [ [ [ -118.231806972157386, 36.874956611618778 ], [ -118.231814901831058, 36.875123313639136 ], [ -118.231796671258593, 36.875123502255143 ], [ -118.231498112676917, 36.875309131975925 ], [ -118.231224590300727, 36.875438160317472 ], [ -118.230868670305867, 36.875545505524777 ], [ -118.230608655477596, 36.875554954811989 ], [ -118.230033933636946, 36.875793012925961 ], [ -118.229513551143157, 36.876118396968735 ], [ -118.229116604449644, 36.876291513765999 ], [ -118.228610607504649, 36.876267438222577 ], [ -118.228200512942237, 36.876210823115244 ], [ -118.22754404444332, 36.876337033629838 ], [ -118.227256699872441, 36.876391828438372 ], [ -118.226613551375351, 36.87660578637098 ], [ -118.226503274422271, 36.876967495602031 ], [ -118.226516938305807, 36.877032708001117 ], [ -118.22662492598883, 36.877624287687254 ], [ -118.226774459334806, 36.878050927812495 ], [ -118.226952259216205, 36.878096421288305 ], [ -118.227828427056451, 36.877587093378438 ], [ -118.22825308277578, 36.877348339589034 ], [ -118.228526252501354, 36.877415383496768 ], [ -118.228894980411454, 36.877691020547104 ], [ -118.229126442790644, 36.878087516151709 ], [ -118.229344561924904, 36.87850443112918 ], [ -118.229576000047132, 36.878986561237248 ], [ -118.229766589805109, 36.879457844437582 ], [ -118.230065917145922, 36.880106035727103 ], [ -118.230283849862246, 36.88055450111041 ], [ -118.230173582278752, 36.880981566414903 ], [ -118.229803805805517, 36.881276099415743 ], [ -118.229283736190567, 36.881448233815817 ], [ -118.228873076888306, 36.881598956925089 ], [ -118.228735612250375, 36.881839253722262 ], [ -118.228858702811408, 36.881905590971385 ], [ -118.229159585839938, 36.88181910442529 ], [ -118.229487820462637, 36.881820222106064 ], [ -118.229692820029769, 36.881899233208159 ], [ -118.229733670639462, 36.882063322429318 ], [ -118.229719454610077, 36.882248262488488 ], [ -118.229555162860066, 36.882324328449194 ], [ -118.229144520771712, 36.882520121005257 ], [ -118.228802412300595, 36.882703938793924 ], [ -118.228474158651835, 36.882745638156678 ], [ -118.228172717536722, 36.882841144770566 ], [ -118.227721389150915, 36.882861574958966 ], [ -118.22721603338077, 36.882639173204772 ], [ -118.226874828496236, 36.882331697262387 ], [ -118.226656714579349, 36.882002667777677 ], [ -118.226411577497416, 36.881518418782697 ], [ -118.226001639723194, 36.881319820083078 ], [ -118.225714791108189, 36.881099668413619 ], [ -118.225688158768733, 36.880793456820975 ], [ -118.225606456507307, 36.880595981674134 ], [ -118.225586756343034, 36.880350544908445 ], [ -118.225894743843369, 36.880072436370881 ], [ -118.226237336619079, 36.879809745825618 ], [ -118.226388498884504, 36.879526491949136 ], [ -118.226511782645602, 36.879320146535456 ], [ -118.226471448146128, 36.879034358255922 ], [ -118.226540729633328, 36.878718142589619 ], [ -118.226568089713595, 36.878587152140902 ], [ -118.226309124609557, 36.878290093006292 ], [ -118.225829923671114, 36.878495596431243 ], [ -118.225610917817804, 36.8785925024006 ], [ -118.225433107213249, 36.878612362484077 ], [ -118.225378950178438, 36.878295163309467 ], [ -118.225639348254944, 36.878001772221012 ], [ -118.22562657845387, 36.877641330589078 ], [ -118.225600286767445, 36.877224688716467 ], [ -118.225669201022967, 36.876863406146434 ], [ -118.225930104590418, 36.876448314258873 ], [ -118.226258864173303, 36.876176752190361 ], [ -118.226546411777335, 36.876025054083954 ], [ -118.226861319820401, 36.875742364688932 ], [ -118.227231282277728, 36.875504178058463 ], [ -118.227600527486601, 36.875396706333845 ], [ -118.227915247233852, 36.875343882959228 ], [ -118.228106897661888, 36.875247254893232 ], [ -118.228293691085085, 36.875110114731235 ], [ -118.228078057988824, 36.874956822985688 ], [ -118.228183071638952, 36.874836299434044 ], [ -118.228482639202312, 36.874537988772303 ], [ -118.228632510889909, 36.874394467576387 ], [ -118.228563430226501, 36.874196863955454 ], [ -118.228426324054951, 36.874042783272031 ], [ -118.22783868971392, 36.873933911292688 ], [ -118.227237593280222, 36.873816161402736 ], [ -118.226950781099035, 36.873859681590417 ], [ -118.22639189649334, 36.874167421251933 ], [ -118.226187673052536, 36.874288962701705 ], [ -118.225805321770991, 36.874322197974365 ], [ -118.225464376905833, 36.874445145715136 ], [ -118.225136353269065, 36.87445528295158 ], [ -118.224793808320285, 36.874104993893035 ], [ -118.22449208839484, 36.873610055926783 ], [ -118.224382525788968, 36.8734894876726 ], [ -118.223835951909763, 36.873382428161101 ], [ -118.223385048732993, 36.873360018484121 ], [ -118.222649301021605, 36.873306729707814 ], [ -118.222960463017387, 36.872942960512283 ], [ -118.223314247836015, 36.872569738814676 ], [ -118.223709360750377, 36.872281726653732 ], [ -118.224390774111029, 36.871830764704391 ], [ -118.224745416899921, 36.871622041445015 ], [ -118.224867222157627, 36.871323315830558 ], [ -118.226031652027203, 36.871063438521666 ], [ -118.226505064123216, 36.870959404445145 ], [ -118.227023754374912, 36.870902227576067 ], [ -118.22752879885121, 36.870912796945873 ], [ -118.228292549876031, 36.871073938701784 ], [ -118.228321875039683, 36.871197583442331 ], [ -118.228814306848633, 36.871449410512092 ], [ -118.229443473779895, 36.871810250286451 ], [ -118.230168730737986, 36.872237701709103 ], [ -118.230715684595665, 36.872412335921965 ], [ -118.231480546235844, 36.87251034467419 ], [ -118.232040270122425, 36.872409902644513 ], [ -118.232682244395704, 36.872475372474504 ], [ -118.232970477185859, 36.872891555299816 ], [ -118.232944041495614, 36.873232120251764 ], [ -118.232753166718993, 36.873310718249925 ], [ -118.232288950443291, 36.873376370129662 ], [ -118.231824947467913, 36.873455540929527 ], [ -118.231894214578062, 36.873729759947167 ], [ -118.232236080623949, 36.87386143780769 ], [ -118.232645577297006, 36.87385945355684 ], [ -118.232974133357359, 36.874079154647426 ], [ -118.232960989851279, 36.874221267769549 ], [ -118.232838490138789, 36.874409584366902 ], [ -118.23262061568056, 36.874553814893694 ], [ -118.232265971064734, 36.874740027163398 ], [ -118.231884181632594, 36.874917503174878 ], [ -118.231806972157386, 36.874956611618778 ] ] ] } },
{ "type": "Feature", "properties": { "NEW": 705, "AREA": 320515.22267500003, "PERIMETER": 2988.879631, "ACRES": 79.2, "USGS_QUAD": "IND", "PCL": "IND204", "PARCEL": 204, "VEG_CLASS": 11000, "TYPE": "E", "DATA": "N", "WELLFIELD": "O", "LIVE_COVER": 100.0, "SPECIES1": "IRAG", "COMP1": 100, "SPECIES2": null, "COMP2": 0, "SPECIES3": null, "COMP3": 0, "SPECIES4": null, "COMP4": 0, "SPECIES5": null, "COMP5": 0, "SPECIES6": null, "COMP6": 0, "SPECIES7": null, "COMP7": 0, "SPECIES8": null, "COMP8": 0, "SPECIES9": null, "COMP9": 0, "SPECIES10": null, "COMP10": 0, "SPECIES11": null, "COMP11": 0, "SPECIES12": null, "COMP12": 0, "ALL_SPECIE": "IRAG", "ROOTDEPTH": 1, "PHASE1": 0, "MERGE_PCL": "BLK105", "ZBRID_CLA": 1 }, "geometry": { "type": "Polygon", "coordinates": [ [ [ -118.221208495439015, 36.875083845865113 ], [ -118.221077557781996, 36.875382661315143 ], [ -118.221049633676159, 36.87563309679939 ], [ -118.221185490706389, 36.876150026795074 ], [ -118.22123963091056, 36.876379336125304 ], [ -118.220965002687748, 36.876814840729899 ], [ -118.220622571965649, 36.877066246279703 ], [ -118.220293779426953, 36.877315258768682 ], [ -118.219978838766181, 36.877487504565408 ], [ -118.21943161016361, 36.877583252729799 ], [ -118.219048681087259, 36.877625486007716 ], [ -118.218720278614029, 36.877700962661457 ], [ -118.218624346404823, 36.877776311529949 ], [ -118.218542253001587, 36.877928142525676 ], [ -118.218514193080566, 36.878104209455195 ], [ -118.218336197202419, 36.878311106590949 ], [ -118.218417531941682, 36.87853112509255 ], [ -118.21860898259078, 36.878508883623006 ], [ -118.218718772886746, 36.878467195654181 ], [ -118.218828184410185, 36.878445793560751 ], [ -118.218882325028503, 36.87858721400535 ], [ -118.218731505029353, 36.878805101843653 ], [ -118.218444122812897, 36.878902694522715 ], [ -118.218047871745981, 36.878746744498784 ], [ -118.217884138817553, 36.878615458501365 ], [ -118.217610625596421, 36.878548395908986 ], [ -118.217446468753693, 36.878633455267185 ], [ -118.217377716928809, 36.878742330225734 ], [ -118.217349636479852, 36.879094176792464 ], [ -118.217212303223263, 36.879300656451328 ], [ -118.216939138423498, 36.879233588764023 ], [ -118.216761901297971, 36.878958209972133 ], [ -118.216612048544818, 36.878684803361075 ], [ -118.216311540873832, 36.878507587038591 ], [ -118.2161474144648, 36.878572364499568 ], [ -118.215983100274542, 36.878713765177558 ], [ -118.21569437116365, 36.878770798453104 ], [ -118.215668553906411, 36.878602043781349 ], [ -118.215369179958671, 36.878075508545187 ], [ -118.215082750740663, 36.877702083469075 ], [ -118.215029189811801, 36.877220361765588 ], [ -118.215126079950323, 36.876674006006368 ], [ -118.215386847570372, 36.876313025573964 ], [ -118.215825061712508, 36.876042629476011 ], [ -118.216194479922862, 36.875966741869227 ], [ -118.216550268268506, 36.875805354742106 ], [ -118.216879414690439, 36.875423390186981 ], [ -118.216893654734179, 36.875215914314047 ], [ -118.216910228052001, 36.875067008643562 ], [ -118.217006691461791, 36.874960076196714 ], [ -118.21702484944889, 36.874601571668933 ], [ -118.217064869578934, 36.874317210647703 ], [ -118.217433031868097, 36.874074565932276 ], [ -118.217582219610051, 36.873798104509099 ], [ -118.217922698859496, 36.873490388124047 ], [ -118.218372744656023, 36.873237889109078 ], [ -118.218918283000633, 36.872993424592302 ], [ -118.219326950131077, 36.872608384491691 ], [ -118.219639892910592, 36.872289679118147 ], [ -118.220321303631465, 36.871859022594997 ], [ -118.221084933284956, 36.871483858467471 ], [ -118.221112275142119, 36.871483578056782 ], [ -118.221726906728634, 36.871484034376437 ], [ -118.222396211489411, 36.871549279459231 ], [ -118.223079002378711, 36.871492687205567 ], [ -118.223733552766291, 36.871204264205417 ], [ -118.224375532261092, 36.871226960147055 ], [ -118.224867222157627, 36.871323315830558 ], [ -118.224745416899921, 36.871622041445015 ], [ -118.224390774111029, 36.871830764704391 ], [ -118.223709360750377, 36.872281726653732 ], [ -118.223314247836015, 36.872569738814676 ], [ -118.222960463017387, 36.872942960512283 ], [ -118.222649301021605, 36.873306729707814 ], [ -118.222497817003202, 36.873481810456589 ], [ -118.222144242898892, 36.873978977127784 ], [ -118.221722092703459, 36.874375431232679 ], [ -118.221299758887639, 36.874760621975966 ], [ -118.221090084305317, 36.874958832192291 ], [ -118.221208495439015, 36.875083845865113 ] ] ] } },
{ "type": "Feature", "properties": { "NEW": 528, "AREA": 347189.148438, "PERIMETER": 3157.02789, "ACRES": 85.8, "USGS_QUAD": "IND", "PCL": "IND027", "PARCEL": 27, "VEG_CLASS": 36110, "TYPE": "A", "DATA": "Y", "WELLFIELD": "I", "LIVE_COVER": 10.0, "SPECIES1": "ATPO", "COMP1": 80, "SPECIES2": "ATCO", "COMP2": 15, "SPECIES3": "ARTRT", "COMP3": 3, "SPECIES4": "PSARM", "COMP4": 1, "SPECIES5": "TEAX", "COMP5": 1, "SPECIES6": null, "COMP6": 0, "SPECIES7": null, "COMP7": 0, "SPECIES8": null, "COMP8": 0, "SPECIES9": null, "COMP9": 0, "SPECIES10": null, "COMP10": 0, "SPECIES11": null, "COMP11": 0, "SPECIES12": null, "COMP12": 0, "ALL_SPECIE": "ATPOATCOARTRTPSARMTEAX", "ROOTDEPTH": 6, "PHASE1": 0, "MERGE_PCL": null, "ZBRID_CLA": 2 }, "geometry": { "type": "Polygon", "coordinates": [ [ [ -118.236964213514071, 36.869794270890125 ], [ -118.236812495447822, 36.870104588025434 ], [ -118.236635267445408, 36.870246151140186 ], [ -118.236280503529557, 36.870292653478778 ], [ -118.235925170134124, 36.870260285236874 ], [ -118.235734449598908, 36.870347901057521 ], [ -118.235639647074365, 36.870644104442569 ], [ -118.235517694617954, 36.870974393237233 ], [ -118.235436936661714, 36.871250168441762 ], [ -118.23535544023548, 36.871392989820919 ], [ -118.235201378946613, 36.871405856150027 ], [ -118.235201378946613, 36.871405856150027 ], [ -118.234986780956717, 36.87142611097493 ], [ -118.234863362857823, 36.871316965499325 ], [ -118.234712385217918, 36.871063876348799 ], [ -118.234820488873524, 36.870657110159897 ], [ -118.235010280790604, 36.870272032376107 ], [ -118.235132053113716, 36.869865124078935 ], [ -118.235158319559091, 36.86955836416157 ], [ -118.234924931408443, 36.869173168645197 ], [ -118.234569591723115, 36.869118260546529 ], [ -118.23406494288453, 36.869306032565689 ], [ -118.233683368288652, 36.86949478083428 ], [ -118.233204952726723, 36.869373536332219 ], [ -118.232807904535434, 36.869122993111809 ], [ -118.232560838010457, 36.868627508870311 ], [ -118.232682080542403, 36.868121450715748 ], [ -118.232748649569061, 36.867638494340227 ], [ -118.232829248510114, 36.867243282442097 ], [ -118.232838050050631, 36.867180090925643 ], [ -118.232838050050631, 36.867180090925643 ], [ -118.232882650047486, 36.866857366436719 ], [ -118.232758513740592, 36.866484556632486 ], [ -118.23234759095827, 36.866002036073006 ], [ -118.23192117599028, 36.865012617538078 ], [ -118.23193377306113, 36.864683463657101 ], [ -118.231997348338126, 36.864450686484048 ], [ -118.231997348338126, 36.864450686484048 ], [ -118.232055011714834, 36.864242759892214 ], [ -118.232463932565523, 36.863968097434224 ], [ -118.232968706928659, 36.86381188106354 ], [ -118.233268438649304, 36.863680322413643 ], [ -118.233253859259676, 36.863340181901535 ], [ -118.23297911959817, 36.862844984697801 ], [ -118.232787144843854, 36.862569781393951 ], [ -118.232635866845129, 36.86229641004109 ], [ -118.232675800488636, 36.861966972951024 ], [ -118.232675800488636, 36.861966972951024 ], [ -118.232963081973239, 36.862042873934591 ], [ -118.23342812627061, 36.862360320218691 ], [ -118.233743311904163, 36.862710867789268 ], [ -118.234195068494202, 36.863008166426674 ], [ -118.23471464715513, 36.863293492084949 ], [ -118.235098386252162, 36.863742482839065 ], [ -118.235700357370476, 36.864114839259088 ], [ -118.236178524643108, 36.864157200943865 ], [ -118.236861285998259, 36.864190674739227 ], [ -118.237161716223738, 36.864189806992407 ], [ -118.237530328509948, 36.864199497754541 ], [ -118.237790282404418, 36.864275671029972 ], [ -118.238514055761385, 36.864308708937401 ], [ -118.238828539269178, 36.864483470456463 ], [ -118.239102535821772, 36.864712738546437 ], [ -118.239444376247803, 36.86490974955727 ], [ -118.239854380330613, 36.864964073896743 ], [ -118.240290820359633, 36.864853609707012 ], [ -118.240428287616268, 36.865073028958527 ], [ -118.240156131194524, 36.86534854787886 ], [ -118.239678893224664, 36.865646483933439 ], [ -118.239311574496341, 36.865999613592663 ], [ -118.238779987259932, 36.86634092984206 ], [ -118.238194234515589, 36.866736893050891 ], [ -118.237813076947972, 36.867123965731331 ], [ -118.237295888652, 36.867663441057019 ], [ -118.236888256103057, 36.868300933733721 ], [ -118.236753905311545, 36.86894910806722 ], [ -118.236755571435083, 36.869422343419899 ], [ -118.236964213514071, 36.869794270890125 ] ] ] } },
{ "type": "Feature", "properties": { "NEW": 531, "AREA": 607248.054688, "PERIMETER": 4489.060784, "ACRES": 150.1, "USGS_QUAD": "IND", "PCL": "IND030", "PARCEL": 30, "VEG_CLASS": 45310, "TYPE": "C", "DATA": "Y", "WELLFIELD": "I", "LIVE_COVER": 80.0, "SPECIES1": "DISPS2", "COMP1": 36, "SPECIES2": "SPAI", "COMP2": 25, "SPECIES3": "JUBA", "COMP3": 10, "SPECIES4": "GLLE3", "COMP4": 7, "SPECIES5": "HOJU", "COMP5": 6, "SPECIES6": "LETR", "COMP6": 3, "SPECIES7": "PADI6", "COMP7": 3, "SPECIES8": "AAFF", "COMP8": 2, "SPECIES9": "TARA", "COMP9": 1, "SPECIES10": null, "COMP10": 0, "SPECIES11": null, "COMP11": 0, "SPECIES12": null, "COMP12": 0, "ALL_SPECIE": "DISPS2SPAIJUBAGLLE3HOJULETRPADI6AAFFTARA", "ROOTDEPTH": 2, "PHASE1": 0, "MERGE_PCL": null, "ZBRID_CLA": 4 }, "geometry": { "type": "Polygon", "coordinates": [ [ [ -118.224867221618979, 36.871323315162286 ], [ -118.224375530895671, 36.871226961073944 ], [ -118.223733552332234, 36.871204264401577 ], [ -118.223079001418313, 36.871492688128036 ], [ -118.222396210192542, 36.871549278942823 ], [ -118.22172690538757, 36.871484033860533 ], [ -118.221112275944435, 36.871483578240046 ], [ -118.221112275944435, 36.871483578240046 ], [ -118.221070592548458, 36.871177518154482 ], [ -118.220933327830096, 36.871012160485982 ], [ -118.220660029435507, 36.870891015470917 ], [ -118.220263176686046, 36.870606624421384 ], [ -118.220166251463553, 36.87019971876542 ], [ -118.220233917786615, 36.870023245640375 ], [ -118.219905450467991, 36.869805760056074 ], [ -118.219304167554981, 36.869629378604166 ], [ -118.21870242207055, 36.869313276504791 ], [ -118.218154801849522, 36.868872670359899 ], [ -118.217689420784026, 36.868532632003422 ], [ -118.217491866761634, 36.868455776687597 ], [ -118.217491866761634, 36.868455776687597 ], [ -118.217811804762036, 36.868335318327212 ], [ -118.21793433010987, 36.868257443149616 ], [ -118.218029699703123, 36.868103223711152 ], [ -118.218124740129568, 36.867906189420914 ], [ -118.218233100509096, 36.867709018769339 ], [ -118.218533203892534, 36.867509885876707 ], [ -118.218778436246694, 36.867387935839638 ], [ -118.219050844634552, 36.867189085122121 ], [ -118.219228092557429, 36.867025012039974 ], [ -118.219322770719501, 36.866805444620553 ], [ -118.219158183042296, 36.86655247469406 ], [ -118.218966412636391, 36.86635386889855 ], [ -118.218747344747229, 36.86606990589889 ], [ -118.218759305414039, 36.865542444134277 ], [ -118.218894114305783, 36.864979921001826 ], [ -118.219056834929404, 36.864563595089358 ], [ -118.219287690753333, 36.864133049713551 ], [ -118.21958316394462, 36.863974526111768 ], [ -118.21958316394462, 36.863974526111768 ], [ -118.219655463654888, 36.863935474560847 ], [ -118.219928567812261, 36.863869576313192 ], [ -118.220200774218583, 36.863636921171178 ], [ -118.220487043117828, 36.863428910721204 ], [ -118.220759778685277, 36.863317942593667 ], [ -118.221114557754234, 36.863273740090392 ], [ -118.221893150904251, 36.863337867423574 ], [ -118.222562535612084, 36.863434661245911 ], [ -118.223218627564535, 36.863599195465731 ], [ -118.223751296624357, 36.863652315271842 ], [ -118.224201443032541, 36.863586841061803 ], [ -118.224705713017954, 36.863266153109798 ], [ -118.225032945235554, 36.863100531559418 ], [ -118.225919536851563, 36.862748861277339 ], [ -118.226107465259147, 36.862706361648208 ], [ -118.226107465259147, 36.862706361648208 ], [ -118.22699747531729, 36.86250338486245 ], [ -118.227146702089698, 36.862452268058064 ], [ -118.227146702089698, 36.862452268058064 ], [ -118.227543144272758, 36.862317473476217 ], [ -118.227924873442817, 36.86220536517628 ], [ -118.229017022839727, 36.862103953445384 ], [ -118.229767768125939, 36.862071412346772 ], [ -118.230343746642319, 36.861961796997441 ], [ -118.230343746642319, 36.861961796997441 ], [ -118.230818892153025, 36.861947871888489 ], [ -118.231188386154116, 36.862209975002003 ], [ -118.231339167251832, 36.862408984993515 ], [ -118.231339879645276, 36.862650111405259 ], [ -118.23067280437941, 36.863288012473021 ], [ -118.229992253876858, 36.863917034618829 ], [ -118.229515529827324, 36.864336618285208 ], [ -118.229496720378734, 36.864366109138473 ], [ -118.229496720378734, 36.864366109138473 ], [ -118.229271186293758, 36.864731265217848 ], [ -118.229149564662663, 36.86521478823866 ], [ -118.229041998728945, 36.865700419602646 ], [ -118.228823934385005, 36.865853660607286 ], [ -118.228441633371688, 36.865821548191875 ], [ -118.227935195544148, 36.865436901847247 ], [ -118.227360593774392, 36.865152113767344 ], [ -118.226896790270104, 36.86526281240932 ], [ -118.226529061758754, 36.865615906889012 ], [ -118.226544514074732, 36.866100268700613 ], [ -118.22660008607069, 36.866462523542118 ], [ -118.226478097973796, 36.866704913863352 ], [ -118.226251483344555, 36.867135429251348 ], [ -118.226251483344555, 36.867135429251348 ], [ -118.226055830912841, 36.867090118808818 ], [ -118.225536455809376, 36.866948982768982 ], [ -118.22489400079553, 36.866673892860064 ], [ -118.224101011471205, 36.866368799608118 ], [ -118.223376692583258, 36.866236521636282 ], [ -118.223049608039489, 36.866413408039669 ], [ -118.223146382406128, 36.866766226988638 ], [ -118.223475916058831, 36.867402859764411 ], [ -118.223710449627987, 36.868105821956796 ], [ -118.224080649016457, 36.868631609264114 ], [ -118.224464031213955, 36.868972465786094 ], [ -118.224725058971657, 36.869533177447664 ], [ -118.224876872494633, 36.869950782623448 ], [ -118.225315280555151, 36.87042178029315 ], [ -118.225698831215226, 36.870794181095292 ], [ -118.226031652501661, 36.871063438131713 ], [ -118.226031652501661, 36.871063438131713 ], [ -118.224867221618979, 36.871323315162286 ] ] ] } },
{ "type": "Feature", "properties": { "NEW": 529, "AREA": 179344.125, "PERIMETER": 2117.540596, "ACRES": 44.3, "USGS_QUAD": "IND", "PCL": "IND028", "PARCEL": 28, "VEG_CLASS": 36120, "TYPE": "A", "DATA": "Y", "WELLFIELD": "O", "LIVE_COVER": 15.0, "SPECIES1": "ATCO", "COMP1": 55, "SPECIES2": "ARTRT", "COMP2": 20, "SPECIES3": "SPAI", "COMP3": 10, "SPECIES4": "SAVE4", "COMP4": 10, "SPECIES5": "DISPS2", "COMP5": 4, "SPECIES6": null, "COMP6": 0, "SPECIES7": null, "COMP7": 0, "SPECIES8": null, "COMP8": 0, "SPECIES9": null, "COMP9": 0, "SPECIES10": null, "COMP10": 0, "SPECIES11": null, "COMP11": 0, "SPECIES12": null, "COMP12": 0, "ALL_SPECIE": "ATCOARTRTSPAISAVE4DISPS2", "ROOTDEPTH": 2, "PHASE1": 0, "MERGE_PCL": null, "ZBRID_CLA": 4 }, "geometry": { "type": "Polygon", "coordinates": [ [ [ -118.228315083438673, 36.870904688047737 ], [ -118.228266629515517, 36.870966034685473 ], [ -118.228292548569698, 36.871073939339745 ], [ -118.228292548569698, 36.871073939339745 ], [ -118.227528798548249, 36.870912797140967 ], [ -118.227023753356775, 36.87090222792277 ], [ -118.226505065391663, 36.870959404623996 ], [ -118.226031652501661, 36.871063438131713 ], [ -118.226031652501661, 36.871063438131713 ], [ -118.225698831215226, 36.870794181095292 ], [ -118.225315280555151, 36.87042178029315 ], [ -118.224876872494633, 36.869950782623448 ], [ -118.224725058971657, 36.869533177447664 ], [ -118.224464031213955, 36.868972465786094 ], [ -118.224080649016457, 36.868631609264114 ], [ -118.223710449627987, 36.868105821956796 ], [ -118.223475916058831, 36.867402859764411 ], [ -118.223146382406128, 36.866766226988638 ], [ -118.223049608039489, 36.866413408039669 ], [ -118.223376692583258, 36.866236521636282 ], [ -118.224101011471205, 36.866368799608118 ], [ -118.22489400079553, 36.866673892860064 ], [ -118.225536455809376, 36.866948982768982 ], [ -118.226055830912841, 36.867090118808818 ], [ -118.226251483344555, 36.867135429251348 ], [ -118.226251483344555, 36.867135429251348 ], [ -118.226561527505012, 36.867208857622629 ], [ -118.226998708021057, 36.867274214319231 ], [ -118.22710845002932, 36.867493934723129 ], [ -118.227395786754073, 36.867659991929429 ], [ -118.227709882982737, 36.867613935492756 ], [ -118.228077983402216, 36.867459149122496 ], [ -118.228827871571767, 36.867041259597187 ], [ -118.229237530709455, 36.867095624153755 ], [ -118.229524467749158, 36.867149001067204 ], [ -118.230028949021161, 36.866907163987015 ], [ -118.230302593293317, 36.867093637878455 ], [ -118.230371848332567, 36.867367859638755 ], [ -118.230317864218108, 36.867587015242641 ], [ -118.230195716512725, 36.867840678892655 ], [ -118.230033081849214, 36.868171382570807 ], [ -118.230052254880974, 36.868317667515988 ], [ -118.230052254880974, 36.868317667515988 ], [ -118.229747009455266, 36.868478571566833 ], [ -118.229515117823254, 36.8685350524621 ], [ -118.229146649396355, 36.868579421412115 ], [ -118.228819394458199, 36.868679703498628 ], [ -118.228574143709665, 36.868887310617573 ], [ -118.228315246469677, 36.869074775747748 ], [ -118.22798762770924, 36.869152523447873 ], [ -118.227824462468831, 36.869341253704683 ], [ -118.227838845798161, 36.86960477479029 ], [ -118.227798514345437, 36.869801252562524 ], [ -118.227744527618228, 36.869955053018579 ], [ -118.228059740556319, 36.870350686688084 ], [ -118.228279052023908, 36.870603079469369 ], [ -118.228315083438673, 36.870904688047737 ] ] ] } },
{ "type": "Feature", "properties": { "NEW": 530, "AREA": 145370.03125, "PERIMETER": 2048.876417, "ACRES": 35.9, "USGS_QUAD": "IND", "PCL": "IND029", "PARCEL": 29, "VEG_CLASS": 45310, "TYPE": "C", "DATA": "Y", "WELLFIELD": "I", "LIVE_COVER": 30.0, "SPECIES1": "SPAI", "COMP1": 60, "SPECIES2": "ATTO", "COMP2": 30, "SPECIES3": "ATPO", "COMP3": 5, "SPECIES4": "ARTRT", "COMP4": 5, "SPECIES5": null, "COMP5": 0, "SPECIES6": null, "COMP6": 0, "SPECIES7": null, "COMP7": 0, "SPECIES8": null, "COMP8": 0, "SPECIES9": null, "COMP9": 0, "SPECIES10": null, "COMP10": 0, "SPECIES11": null, "COMP11": 0, "SPECIES12": null, "COMP12": 0, "ALL_SPECIE": "SPAIATTOATPOARTRT", "ROOTDEPTH": 2, "PHASE1": 0, "MERGE_PCL": null, "ZBRID_CLA": 4 }, "geometry": { "type": "Polygon", "coordinates": [ [ [ -118.232838050050631, 36.867180090925643 ], [ -118.232351198973163, 36.867122030626795 ], [ -118.232050778894163, 36.867167957820584 ], [ -118.231546302734941, 36.867409803421218 ], [ -118.231041845025231, 36.867696718387343 ], [ -118.230824147704482, 36.867960384896918 ], [ -118.230607001546247, 36.868280384926607 ], [ -118.230334270569713, 36.868479265363092 ], [ -118.230052254880974, 36.868317667515988 ], [ -118.230052254880974, 36.868317667515988 ], [ -118.230033081849214, 36.868171382570807 ], [ -118.230195716512725, 36.867840678892655 ], [ -118.230317864218108, 36.867587015242641 ], [ -118.230371848332567, 36.867367859638755 ], [ -118.230302593293317, 36.867093637878455 ], [ -118.230028949021161, 36.866907163987015 ], [ -118.229524467749158, 36.867149001067204 ], [ -118.229237530709455, 36.867095624153755 ], [ -118.228827871571767, 36.867041259597187 ], [ -118.228077983402216, 36.867459149122496 ], [ -118.227709882982737, 36.867613935492756 ], [ -118.227395786754073, 36.867659991929429 ], [ -118.22710845002932, 36.867493934723129 ], [ -118.226998708021057, 36.867274214319231 ], [ -118.226561527505012, 36.867208857622629 ], [ -118.226251483344555, 36.867135429251348 ], [ -118.226251483344555, 36.867135429251348 ], [ -118.226478097973796, 36.866704913863352 ], [ -118.22660008607069, 36.866462523542118 ], [ -118.226544514074732, 36.866100268700613 ], [ -118.226529061758754, 36.865615906889012 ], [ -118.226896790270104, 36.86526281240932 ], [ -118.227360593774392, 36.865152113767344 ], [ -118.227935195544148, 36.865436901847247 ], [ -118.228441633371688, 36.865821548191875 ], [ -118.228823934385005, 36.865853660607286 ], [ -118.229041998728945, 36.865700419602646 ], [ -118.229149564662663, 36.86521478823866 ], [ -118.229271186293758, 36.864731265217848 ], [ -118.229496720378734, 36.864366109138473 ], [ -118.229496720378734, 36.864366109138473 ], [ -118.23006169102058, 36.864290412612128 ], [ -118.230402973956288, 36.864322943715464 ], [ -118.23078615262159, 36.864519552551684 ], [ -118.231045060933511, 36.864399689433995 ], [ -118.231236086944634, 36.864309824352773 ], [ -118.231659247307761, 36.8643324907843 ], [ -118.231997348338126, 36.864450686484048 ], [ -118.231997348338126, 36.864450686484048 ], [ -118.23193377306113, 36.864683463657101 ], [ -118.23192117599028, 36.865012617538078 ], [ -118.23234759095827, 36.866002036073006 ], [ -118.232758513740592, 36.866484556632486 ], [ -118.232882650047486, 36.866857366436719 ], [ -118.232838050050631, 36.867180090925643 ] ] ] } },
{ "type": "Feature", "properties": { "NEW": 533, "AREA": 100902.132813, "PERIMETER": 2007.963771, "ACRES": 24.9, "USGS_QUAD": "IND", "PCL": "IND032", "PARCEL": 32, "VEG_CLASS": 36110, "TYPE": "A", "DATA": "Y", "WELLFIELD": "I", "LIVE_COVER": 30.0, "SPECIES1": "ATPO", "COMP1": 75, "SPECIES2": "ATCA2", "COMP2": 15, "SPECIES3": "ARTRT", "COMP3": 5, "SPECIES4": "ATTO", "COMP4": 5, "SPECIES5": null, "COMP5": 0, "SPECIES6": null, "COMP6": 0, "SPECIES7": null, "COMP7": 0, "SPECIES8": null, "COMP8": 0, "SPECIES9": null, "COMP9": 0, "SPECIES10": null, "COMP10": 0, "SPECIES11": null, "COMP11": 0, "SPECIES12": null, "COMP12": 0, "ALL_SPECIE": "ATPOATCA2ARTRTATTO", "ROOTDEPTH": 6, "PHASE1": 0, "MERGE_PCL": null, "ZBRID_CLA": 2 }, "geometry": { "type": "Polygon", "coordinates": [ [ [ -118.231997348338126, 36.864450686484048 ], [ -118.231659247307761, 36.8643324907843 ], [ -118.231236086944634, 36.864309824352773 ], [ -118.231045060933511, 36.864399689433995 ], [ -118.23078615262159, 36.864519552551684 ], [ -118.230402973956288, 36.864322943715464 ], [ -118.23006169102058, 36.864290412612128 ], [ -118.229496720378734, 36.864366109138473 ], [ -118.229496720378734, 36.864366109138473 ], [ -118.229515529827324, 36.864336618285208 ], [ -118.229992253876858, 36.863917034618829 ], [ -118.23067280437941, 36.863288012473021 ], [ -118.231339879645276, 36.862650111405259 ], [ -118.231339167251832, 36.862408984993515 ], [ -118.231188386154116, 36.862209975002003 ], [ -118.230818892153025, 36.861947871888489 ], [ -118.230343746642319, 36.861961796997441 ], [ -118.230343746642319, 36.861961796997441 ], [ -118.230476005253081, 36.86146464110692 ], [ -118.230338375753078, 36.861123518087162 ], [ -118.230077534422747, 36.860684510006493 ], [ -118.229735215330948, 36.860345500707908 ], [ -118.229625126445484, 36.860125786080182 ], [ -118.229419491058195, 36.859828182367089 ], [ -118.22906403386412, 36.859719172689047 ], [ -118.228804634409542, 36.859654242399948 ], [ -118.228489287876442, 36.859335233355523 ], [ -118.22837922634092, 36.859007345016543 ], [ -118.228473473891086, 36.858609741146751 ], [ -118.228869048539337, 36.858465936713323 ], [ -118.228869048539337, 36.858465936713323 ], [ -118.228978453095138, 36.858577486938053 ], [ -118.229102022006828, 36.858697905198206 ], [ -118.229197732095201, 36.858829878871404 ], [ -118.229567375259748, 36.859080717724972 ], [ -118.229812938819791, 36.859091703151613 ], [ -118.230182249819677, 36.859299725332889 ], [ -118.230333533886906, 36.859618171663719 ], [ -118.230415737211374, 36.85971648007898 ], [ -118.23071705598278, 36.859925203164721 ], [ -118.231099873127192, 36.860144350780331 ], [ -118.231292359468497, 36.86056152765844 ], [ -118.231512009980989, 36.860901801269108 ], [ -118.231908706870229, 36.861177142343614 ], [ -118.232195995787961, 36.861275580996605 ], [ -118.232442438218769, 36.861559235890809 ], [ -118.232675800488636, 36.861966972951024 ], [ -118.232675800488636, 36.861966972951024 ], [ -118.232635866845129, 36.86229641004109 ], [ -118.232787144843854, 36.862569781393951 ], [ -118.23297911959817, 36.862844984697801 ], [ -118.233253859259676, 36.863340181901535 ], [ -118.233268438649304, 36.863680322413643 ], [ -118.232968706928659, 36.86381188106354 ], [ -118.232463932565523, 36.863968097434224 ], [ -118.232055011714834, 36.864242759892214 ], [ -118.231997348338126, 36.864450686484048 ] ] ] } },
{ "type": "Feature", "properties": { "NEW": 441, "AREA": 3780770.0, "PERIMETER": 17437.586435000001, "ACRES": 934.2, "USGS_QUAD": "BLK", "PCL": "BLK098", "PARCEL": 98, "VEG_CLASS": 34210, "TYPE": "A", "DATA": "Y", "WELLFIELD": "O", "LIVE_COVER": 18.0, "SPECIES1": "ERCO23", "COMP1": 46, "SPECIES2": "ERFA2", "COMP2": 16, "SPECIES3": "HYSA", "COMP3": 7, "SPECIES4": "EPNE", "COMP4": 5, "SPECIES5": "TEAX", "COMP5": 5, "SPECIES6": "CELA", "COMP6": 4, "SPECIES7": "CHTE4", "COMP7": 3, "SPECIES8": "STSP3", "COMP8": 0, "SPECIES9": "2", "COMP9": 0, "SPECIES10": "2", "COMP10": 0, "SPECIES11": "2", "COMP11": 0, "SPECIES12": null, "COMP12": 0, "ALL_SPECIE": "ERCO23ERFA2HYSAEPNETEAXCELACHTE4STSP3222", "ROOTDEPTH": 6, "PHASE1": 0, "MERGE_PCL": "IND031", "ZBRID_CLA": 0 }, "geometry": { "type": "Polygon", "coordinates": [ [ [ -118.245293433149087, 36.875172398781139 ], [ -118.245305924679968, 36.880283388005594 ], [ -118.249822934475574, 36.880301408730951 ], [ -118.249831752829934, 36.883898026369756 ], [ -118.249832397212899, 36.883916048220833 ], [ -118.249914518383761, 36.890416751218361 ], [ -118.249603377527265, 36.890390720989465 ], [ -118.249124767037799, 36.890310107850311 ], [ -118.248673698490023, 36.890154835966662 ], [ -118.248154397130364, 36.88990112047496 ], [ -118.247703791052402, 36.889601611277868 ], [ -118.247252901541657, 36.88939224630014 ], [ -118.246788292495935, 36.889115416035835 ], [ -118.246502015853451, 36.888633895148608 ], [ -118.246311448241599, 36.888128835865999 ], [ -118.24624413057127, 36.887525582358549 ], [ -118.24613581719592, 36.887010647301913 ], [ -118.245972147348056, 36.886757706255935 ], [ -118.245725960174113, 36.886735493176232 ], [ -118.245520795623349, 36.886712850420679 ], [ -118.245247565081328, 36.88662331199022 ], [ -118.245124957925924, 36.886372193820264 ], [ -118.245002296901376, 36.885988115069047 ], [ -118.245058429553808, 36.885363287360391 ], [ -118.244977155285554, 36.884893139751043 ], [ -118.24471777109396, 36.884684015677493 ], [ -118.244362482539827, 36.884507443541217 ], [ -118.244089229894442, 36.884264659367275 ], [ -118.243830148359933, 36.883922569091155 ], [ -118.24361246863856, 36.883408773856466 ], [ -118.243421431136213, 36.883045689628574 ], [ -118.243340360145169, 36.882652160173542 ], [ -118.243190536020833, 36.882257094999865 ], [ -118.243054233318858, 36.882003863864036 ], [ -118.242794366780913, 36.882002069683864 ], [ -118.242206273441312, 36.882064546674172 ], [ -118.242001755312955, 36.881712868585538 ], [ -118.241865633756859, 36.881405548267146 ], [ -118.241784398539593, 36.880957933411032 ], [ -118.241470139548852, 36.880758388731671 ], [ -118.241019622631825, 36.880416034501827 ], [ -118.240732927267075, 36.880164368150183 ], [ -118.24062464086434, 36.879669709099929 ], [ -118.240679826003216, 36.879331097073745 ], [ -118.240543736996514, 36.879003492505539 ], [ -118.240339398842792, 36.878575187690963 ], [ -118.240244499269423, 36.878235885699858 ], [ -118.240326699044175, 36.878158407645479 ], [ -118.240833026963017, 36.87789847710031 ], [ -118.241134223240536, 36.877746601289843 ], [ -118.241476803230341, 36.877508657128416 ], [ -118.241463082791341, 36.877375838941582 ], [ -118.241162545494447, 36.877286575590489 ], [ -118.240943594445227, 36.877320408065941 ], [ -118.240533295782598, 36.877295387383029 ], [ -118.240205742425346, 36.87705315960293 ], [ -118.239932548277963, 36.876898254447688 ], [ -118.239796106564739, 36.876786996298044 ], [ -118.239646518348124, 36.876382909317051 ], [ -118.239784059122599, 36.875933014454041 ], [ -118.239852767538963, 36.87569341931389 ], [ -118.239771546408051, 36.875353974280948 ], [ -118.239506709652616, 36.875151655828269 ], [ -118.239761184974796, 36.874950673319596 ], [ -118.239598290256794, 36.874330380797133 ], [ -118.23925549870475, 36.873903515122834 ], [ -118.238981255671987, 36.873552556899291 ], [ -118.238843944936136, 36.873321866737442 ], [ -118.238610159393147, 36.872848793172416 ], [ -118.238294344060165, 36.87231121838942 ], [ -118.238115799470151, 36.871936726866238 ], [ -118.237909233501597, 36.871476890237552 ], [ -118.237826262846582, 36.871180279887938 ], [ -118.237496959912818, 36.87069692904619 ], [ -118.237181138179977, 36.87017963340471 ], [ -118.237002811279069, 36.869861477395148 ], [ -118.236964213514071, 36.869794270890125 ], [ -118.236755571435083, 36.869422343419899 ], [ -118.236753905311545, 36.86894910806722 ], [ -118.236888256103057, 36.868300933733721 ], [ -118.237295888652, 36.867663441057019 ], [ -118.237813076947972, 36.867123965731331 ], [ -118.238194234515589, 36.866736893050891 ], [ -118.238779987259932, 36.86634092984206 ], [ -118.239311574496341, 36.865999613592663 ], [ -118.239678893224664, 36.865646483933439 ], [ -118.240156131194524, 36.86534854787886 ], [ -118.240428287616268, 36.865073028958527 ], [ -118.240290820359633, 36.864853609707012 ], [ -118.239854380330613, 36.864964073896743 ], [ -118.239444376247803, 36.86490974955727 ], [ -118.239102535821772, 36.864712738546437 ], [ -118.238828539269178, 36.864483470456463 ], [ -118.238514055761385, 36.864308708937401 ], [ -118.237790282404418, 36.864275671029972 ], [ -118.237530328509948, 36.864199497754541 ], [ -118.237161716223738, 36.864189806992407 ], [ -118.236861285998259, 36.864190674739227 ], [ -118.236178524643108, 36.864157200943865 ], [ -118.235700357370476, 36.864114839259088 ], [ -118.235098386252162, 36.863742482839065 ], [ -118.23471464715513, 36.863293492084949 ], [ -118.234195068494202, 36.863008166426674 ], [ -118.233743311904163, 36.862710867789268 ], [ -118.23342812627061, 36.862360320218691 ], [ -118.232963081973239, 36.862042873934591 ], [ -118.232675800488636, 36.861966972951024 ], [ -118.232442438218769, 36.861559235890809 ], [ -118.232195995787961, 36.861275580996605 ], [ -118.231908706870229, 36.861177142343614 ], [ -118.231512009980989, 36.860901801269108 ], [ -118.231292359468497, 36.86056152765844 ], [ -118.231099873127192, 36.860144350780331 ], [ -118.23071705598278, 36.859925203164721 ], [ -118.230415737211374, 36.85971648007898 ], [ -118.230333533886906, 36.859618171663719 ], [ -118.230182249819677, 36.859299725332889 ], [ -118.229812938819791, 36.859091703151613 ], [ -118.229567375259748, 36.859080717724972 ], [ -118.229197732095201, 36.858829878871404 ], [ -118.229102022006828, 36.858697905198206 ], [ -118.228978453095138, 36.858577486938053 ], [ -118.228869048539337, 36.858465936713323 ], [ -118.228758796469364, 36.858104246881638 ], [ -118.228621021040937, 36.857796927000365 ], [ -118.228483951643796, 36.857577489612574 ], [ -118.228155660718002, 36.857369038955589 ], [ -118.228045407277008, 36.85707270242365 ], [ -118.227539230813449, 36.856744390768498 ], [ -118.227155716163836, 36.856304386946086 ], [ -118.226812878894705, 36.855821144543839 ], [ -118.226715949577311, 36.855436779421893 ], [ -118.226496860888375, 36.855261002812171 ], [ -118.226209969657631, 36.855119727898121 ], [ -118.226207838935565, 36.855052142154406 ], [ -118.226194523255046, 36.854547475201748 ], [ -118.226165950546431, 36.854184941486658 ], [ -118.225932477449575, 36.853788460102557 ], [ -118.225549176282911, 36.853382252493141 ], [ -118.225138030589918, 36.8529222439427 ], [ -118.224549361785265, 36.852427999272749 ], [ -118.2243161102069, 36.852022497973273 ], [ -118.224198739269085, 36.851563972274782 ], [ -118.224163991924627, 36.851429114075856 ], [ -118.224244774687008, 36.851065455432519 ], [ -118.224489624408747, 36.850747435043026 ], [ -118.224488211098787, 36.850262927537997 ], [ -118.22426844650299, 36.849823483456234 ], [ -118.223979999555212, 36.849208964842745 ], [ -118.224006102600939, 36.848823332401267 ], [ -118.224154898057392, 36.848438692225884 ], [ -118.223941987468933, 36.848032980832528 ], [ -118.223907654217157, 36.847967979578208 ], [ -118.223619181876771, 36.84735120659095 ], [ -118.223549814637877, 36.846935004897531 ], [ -118.223520911423179, 36.846484583484852 ], [ -118.223559998299294, 36.845857683221467 ], [ -118.22353073360992, 36.845186413404221 ], [ -118.223596999354626, 36.844615573566593 ], [ -118.223568102342398, 36.843989371730075 ], [ -118.223675695636743, 36.843548815480531 ], [ -118.223989366264433, 36.843372064957173 ], [ -118.224398904632309, 36.843361093748214 ], [ -118.224771252076621, 36.843413604271078 ], [ -118.224785739185123, 36.851226657966279 ], [ -118.233850725161489, 36.851135324698568 ], [ -118.233861391647594, 36.854722929062511 ], [ -118.231536689407079, 36.854746996510535 ], [ -118.231547868208281, 36.858372905021405 ], [ -118.235988307762625, 36.858308864407078 ], [ -118.235945278295546, 36.854699062437163 ], [ -118.238395648945996, 36.854664587213534 ], [ -118.250923311585396, 36.854513343662575 ], [ -118.250932034701123, 36.869053386920001 ], [ -118.24061560799548, 36.869114007864603 ], [ -118.240621215051334, 36.872735457668206 ], [ -118.245119879864234, 36.872708777635488 ], [ -118.245123441144074, 36.874937532878924 ], [ -118.245293433149087, 36.875172398781139 ] ] ] } }
]
}
