{
"type": "FeatureCollection",
"name": "IND026_parcel_boundary_wgs84",
"crs": { "type": "name", "properties": { "name": "urn:ogc:def:crs:OGC:1.3:CRS84" } },
"features": [
{ "type": "Feature", "properties": { "NEW": 527, "AREA": 174191.417969, "PERIMETER": 2354.580473, "ACRES": 43.0, "USGS_QUAD": "IND", "PCL": "IND026", "PARCEL": 26, "VEG_CLASS": 45310, "TYPE": "C", "DATA": "Y", "WELLFIELD": "I", "LIVE_COVER": 60.0, "SPECIES1": "SPAI", "COMP1": 70, "SPECIES2": "SAKAT", "COMP2": 12, "SPECIES3": "BAHY", "COMP3": 8, "SPECIES4": "ATTO", "COMP4": 5, "SPECIES5": "ARTRT", "COMP5": 3, "SPECIES6": "GLLE3", "COMP6": 1, "SPECIES7": null, "COMP7": 0, "SPECIES8": null, "COMP8": 0, "SPECIES9": null, "COMP9": 0, "SPECIES10": null, "COMP10": 0, "SPECIES11": null, "COMP11": 0, "SPECIES12": null, "COMP12": 0, "ALL_SPECIE": "SPAISAKATBAHYATTOARTRTGLLE3", "ROOTDEPTH": 2, "PHASE1": 0, "MERGE_PCL": null, "ZBRID_CLA": 4 }, "geometry": { "type": "Polygon", "coordinates": [ [ [ -118.235201378946613, 36.871405856150027 ], [ -118.235423364458555, 36.871757365542202 ], [ -118.235423364458555, 36.871757365542202 ], [ -118.235288171943353, 36.871788064860468 ], [ -118.234947228510308, 36.87193132391571 ], [ -118.234265145895804, 36.87205332953792 ], [ -118.233745374596054, 36.871781525929258 ], [ -118.233184363519783, 36.871474089835132 ], [ -118.232706296044412, 36.871440729548134 ], [ -118.232296297088155, 36.871388634171886 ], [ -118.231927087671053, 36.871234704068002 ], [ -118.231461443439628, 36.870795565113539 ], [ -118.230737287944478, 36.870676852130721 ], [ -118.230245388902148, 36.870589538866 ], [ -118.229876357280986, 36.870424332584086 ], [ -118.229601802868487, 36.869962929938261 ], [ -118.229259081598087, 36.869601388138641 ], [ -118.228958783625572, 36.869633784752352 ], [ -118.228768277328456, 36.869822798497303 ], [ -118.228687654950704, 36.870218007795323 ], [ -118.228607041985086, 36.870635752763818 ], [ -118.228388973070665, 36.870811528790611 ], [ -118.228315083438673, 36.870904688047737 ], [ -118.228315083438673, 36.870904688047737 ], [ -118.228279052023908, 36.870603079469369 ], [ -118.228059740556319, 36.870350686688084 ], [ -118.227744527618228, 36.869955053018579 ], [ -118.227798514345437, 36.869801252562524 ], [ -118.227838845798161, 36.86960477479029 ], [ -118.227824462468831, 36.869341253704683 ], [ -118.22798762770924, 36.869152523447873 ], [ -118.228315246469677, 36.869074775747748 ], [ -118.228574143709665, 36.868887310617573 ], [ -118.228819394458199, 36.868679703498628 ], [ -118.229146649396355, 36.868579421412115 ], [ -118.229515117823254, 36.8685350524621 ], [ -118.229747009455266, 36.868478571566833 ], [ -118.230052254880974, 36.868317667515988 ], [ -118.230052254880974, 36.868317667515988 ], [ -118.230334270569713, 36.868479265363092 ], [ -118.230607001546247, 36.868280384926607 ], [ -118.230824147704482, 36.867960384896918 ], [ -118.231041845025231, 36.867696718387343 ], [ -118.231546302734941, 36.867409803421218 ], [ -118.232050778894163, 36.867167957820584 ], [ -118.232351198973163, 36.867122030626795 ], [ -118.232838050050631, 36.867180090925643 ], [ -118.232838050050631, 36.867180090925643 ], [ -118.232829248510114, 36.867243282442097 ], [ -118.232748649569061, 36.867638494340227 ], [ -118.232682080542403, 36.868121450715748 ], [ -118.232560838010457, 36.868627508870311 ], [ -118.232807904535434, 36.869122993111809 ], [ -118.233204952726723, 36.869373536332219 ], [ -118.233683368288652, 36.86949478083428 ], [ -118.23406494288453, 36.869306032565689 ], [ -118.234569591723115, 36.869118260546529 ], [ -118.234924931408443, 36.869173168645197 ], [ -118.235158319559091, 36.86955836416157 ], [ -118.235132053113716, 36.869865124078935 ], [ -118.235010280790604, 36.870272032376107 ], [ -118.234820488873524, 36.870657110159897 ], [ -118.234712385217918, 36.871063876348799 ], [ -118.234863362857823, 36.871316965499325 ], [ -118.234986780956717, 36.87142611097493 ], [ -118.235201378946613, 36.871405856150027 ] ] ] } }
]
}
