{"type": "FeatureCollection", "crs": {"type": "name", "properties": {"name": "EPSG:4326"}}, "features": [{"type": "Feature", "id": 1073, "geometry": {"type": "Point", "coordinates": [-118.228371542818, 36.8698788414068]}, "properties": {"FID": 1073, "IDENT": "IND026_01_358", "GlobalId": "c04c1a42-7245-419a-a419-791c5730fa3f", "Tag_Found": "Yes", "comments": null, "visit_date": 1782397063938}}, {"type": "Feature", "id": 1074, "geometry": {"type": "Point", "coordinates": [-118.22873579513, 36.8695054999103]}, "properties": {"FID": 1074, "IDENT": "IND026_02_237", "GlobalId": "c477e7a8-acc6-41ac-8f06-98ec31f0ae50", "Tag_Found": null, "comments": null, "visit_date": null}}, {"type": "Feature", "id": 1075, "geometry": {"type": "Point", "coordinates": [-118.229732344637, 36.8686839277948]}, "properties": {"FID": 1075, "IDENT": "IND026_03_055", "GlobalId": "016eaa42-129c-4aac-a8cb-21e546f9bea2", "Tag_Found": "Yes", "comments": null, "visit_date": 1782398844857}}, {"type": "Feature", "id": 1076, "geometry": {"type": "Point", "coordinates": [-118.23122118386, 36.8684792169894]}, "properties": {"FID": 1076, "IDENT": "IND026_04_252", "GlobalId": "8946aec4-c5bc-4a99-afca-af02a55c83df", "Tag_Found": null, "comments": null, "visit_date": null}}, {"type": "Feature", "id": 1077, "geometry": {"type": "Point", "coordinates": [-118.23210617551, 36.8683979323461]}, "properties": {"FID": 1077, "IDENT": "IND026_05_212", "GlobalId": "4f9b2105-5757-432c-8cb1-34d7c30b1424", "Tag_Found": "Yes", "comments": null, "visit_date": 1782403521616}}, {"type": "Feature", "id": 1078, "geometry": {"type": "Point", "coordinates": [-118.232381976106, 36.8695037995139]}, "properties": {"FID": 1078, "IDENT": "IND026_06_101", "GlobalId": "cb826d06-998c-47fc-bd54-30690157acfe", "Tag_Found": null, "comments": null, "visit_date": null}}, {"type": "Feature", "id": 1079, "geometry": {"type": "Point", "coordinates": [-118.231252941031, 36.8697588818425]}, "properties": {"FID": 1079, "IDENT": "IND026_07_236", "GlobalId": "ce5ff6a5-39e1-4e65-b5a6-36d9fd64cf48", "Tag_Found": "Yes", "comments": null, "visit_date": 1782402388841}}, {"type": "Feature", "id": 1080, "geometry": {"type": "Point", "coordinates": [-118.230216760217, 36.8695082059519]}, "properties": {"FID": 1080, "IDENT": "IND026_08_160", "GlobalId": "8f02c155-4c9d-41f5-8bb1-50d6729f8f1c", "Tag_Found": null, "comments": null, "visit_date": null}}, {"type": "Feature", "id": 1081, "geometry": {"type": "Point", "coordinates": [-118.229977639545, 36.8699884253514]}, "properties": {"FID": 1081, "IDENT": "IND026_09_266", "GlobalId": "28e4f505-c609-4430-a847-8d85b0831c0d", "Tag_Found": "Yes", "comments": null, "visit_date": 1782401481761}}, {"type": "Feature", "id": 1082, "geometry": {"type": "Point", "coordinates": [-118.231467005015, 36.8705138430768]}, "properties": {"FID": 1082, "IDENT": "IND026_10_099", "GlobalId": "7422f5d2-f696-43ab-82fc-1d1bf94f9623", "Tag_Found": null, "comments": null, "visit_date": null}}, {"type": "Feature", "id": 1083, "geometry": {"type": "Point", "coordinates": [-118.23186308687, 36.8707260748082]}, "properties": {"FID": 1083, "IDENT": "IND026_11_327", "GlobalId": "9330b399-be64-4a94-9c4b-fea63fa596bc", "Tag_Found": "Yes", "comments": null, "visit_date": 1782405031189}}, {"type": "Feature", "id": 1084, "geometry": {"type": "Point", "coordinates": [-118.233293119212, 36.870350680699]}, "properties": {"FID": 1084, "IDENT": "IND026_12_082", "GlobalId": "1369365b-05f6-44eb-8533-75e9592b90f8", "Tag_Found": null, "comments": null, "visit_date": null}}, {"type": "Feature", "id": 1085, "geometry": {"type": "Point", "coordinates": [-118.234441689637, 36.869915095317]}, "properties": {"FID": 1085, "IDENT": "IND026_13_217", "GlobalId": "f693965c-0a10-4a14-beb9-e60d42948956", "Tag_Found": "Yes", "comments": null, "visit_date": 1782410784124}}, {"type": "Feature", "id": 1086, "geometry": {"type": "Point", "coordinates": [-118.234211636763, 36.8702600182557]}, "properties": {"FID": 1086, "IDENT": "IND026_14_077", "GlobalId": "27954b77-672c-4c32-8a39-6a1e87bdbce8", "Tag_Found": null, "comments": null, "visit_date": null}}, {"type": "Feature", "id": 1087, "geometry": {"type": "Point", "coordinates": [-118.234091870823, 36.8704866129971]}, "properties": {"FID": 1087, "IDENT": "IND026_15_051", "GlobalId": "b0e704d7-ffd4-45be-8db1-b463d4bf4ead", "Tag_Found": "No", "comments": null, "visit_date": 1782409529361}}, {"type": "Feature", "id": 1088, "geometry": {"type": "Point", "coordinates": [-118.234320372792, 36.8714397275928]}, "properties": {"FID": 1088, "IDENT": "IND026_16_305", "GlobalId": "4114ba34-b17f-4353-9b0d-b6055488599e", "Tag_Found": null, "comments": null, "visit_date": null}}]}